[{"name":"Le Moulin d'Alotz","etoile":"","note":"","type_cuisine":"Cuisine Moderne, Créative","prix_min":"75 ","prix_max":"90 €","zipcode":"64200","ville":"Alotz","address":"chemin Alotz-Errota"},{"name":"Jean Chauvel","etoile":"","note":"","type_cuisine":"Cuisine Moderne, Créative","prix_min":"76 ","prix_max":"98 €","zipcode":"92100","ville":"Boulogne-Billancourt","address":"33 av. Général-Leclerc"},{"name":"Ima","etoile":"","note":"","type_cuisine":"Cuisine Moderne, Créative","prix_min":"30 ","prix_max":"78 €","zipcode":"35000","ville":"Rennes","address":"20 bd de la Tour-d'Auvergne"},{"name":"Le Cercle","etoile":"","note":"","type_cuisine":"Cuisine Moderne, Créative","prix_min":"26 ","prix_max":"95 €","zipcode":"18000","ville":"Bourges","address":"44 bd Lahitolle"},{"name":"Table des Frères Ibarboure","etoile":"","note":"","type_cuisine":"Cuisine Moderne, Créative; Traditionnel, Classique","prix_min":"44 ","prix_max":"115 ","zipcode":"64210","ville":"Bidart","address":"chemin Ttalienea"},{"name":"Auberge Le Prieuré","etoile":"","note":"","type_cuisine":"Cuisine Moderne, Créative","prix_min":"28 ","prix_max":"76 €","zipcode":"47310","ville":"Moirax","address":"4 Grand'Rue"},{"name":"Casadelmar","etoile":"","note":"","type_cuisine":"Cuisine Moderne, Créative; Méditerranéen; Viandes, Grillades; Végétarien; Végétalien","prix_min":"70 ","prix_max":"195 ","zipcode":"20137","ville":"Porto-Vecchio","address":"Route de la Plage de Palombaggia"},{"name":"Le Moulin des Quatre Saisons","etoile":"","note":"","type_cuisine":"Cuisine Moderne, Créative","prix_min":"27 ","prix_max":"100 ","zipcode":"72200","ville":"La Flèche","address":"r. Gallieni"},{"name":"Le Bénaton","etoile":"","note":"","type_cuisine":"Cuisine Moderne, Créative","prix_min":"34 ","prix_max":"90 €","zipcode":"21200","ville":"BEAUNE","address":"25 Rue du Faubourg-Bretonnière"},{"name":"Les Morainières","etoile":"","note":"","type_cuisine":"Cuisine Moderne, Créative; Gastronomique; Végétarien; Végétalien","prix_min":"48 ","prix_max":"115 ","zipcode":"73170","ville":"Jongieux","address":"route de Marétel"},{"name":"Le Gindreau","etoile":"","note":"","type_cuisine":"Cuisine Moderne, Créative; Traditionnel, Classique","prix_min":"42 ","prix_max":"147 ","zipcode":"46150","ville":"Saint-Médard","address":"D5"},{"name":"En Pleine Nature","etoile":"","note":"","type_cuisine":"Cuisine Moderne, Créative","prix_min":"26 ","prix_max":"78 €","zipcode":"31130","ville":"Fonsegrives","address":"6 pl. de la Mairie"},{"name":"Comice","etoile":"","note":"","type_cuisine":"Cuisine Moderne, Créative","prix_min":"60 ","prix_max":"120 ","zipcode":"75016","ville":"Paris","address":"31 av. de Versailles","menu":[]},{"name":"Greuze","etoile":"","note":"","type_cuisine":"Cuisine Moderne, Créative; Gastronomique; Végétarien; Végétalien; Traditionnel, Classique","prix_min":"42 ","prix_max":"135 ","zipcode":"71700","ville":"Tournus","address":"1 r. A. Thibaudet"},{"name":"L'Odas","etoile":"","note":"","type_cuisine":"Cuisine Moderne, Créative; Gastronomique; Végétarien; Végétalien","prix_min":"29 ","prix_max":"80 €","zipcode":"76000","ville":"Rouen","address":"4 Passage Maurice Lenfant","menu":[["Menu à l'aveugle à 69€","En réservant avec ce menu, vous pouvez, une fois sur place, soit bénéficier de ce menu, soit commander à la carte si vous changez d’avis."],["Menu à l'aveugle à 49€","En réservant avec ce menu, vous pouvez, une fois sur place, soit bénéficier de ce menu, soit commander à la carte si vous changez d’avis."],["Formule midi à 29€",""]]},{"name":"Côté Jardin","etoile":"","note":"","type_cuisine":"Cuisine Moderne, Créative","prix_min":"29 ","prix_max":"80 €","zipcode":"45500","ville":"Gien","address":"14 rte de Bourges"},{"name":"L'Atelier de Jean-Luc Rabanel","etoile":"","note":"","type_cuisine":"Cuisine Moderne, Créative","prix_min":"85 ","prix_max":"145 ","zipcode":"13200","ville":"Arles","address":"7 r. des Carmes"},{"name":"Entre Vigne et Garrigue","etoile":"","note":"","type_cuisine":"Cuisine Moderne, Créative; Traditionnel, Classique; Gastronomique; Végétarien; Végétalien","prix_min":"36 ","prix_max":"100 ","zipcode":"30131","ville":"Pujaut","address":"600 route de Saint Bruno"},{"name":"Les Berceaux","etoile":"","note":"","type_cuisine":"Traditionnel, Classique","prix_min":"45 ","prix_max":"95 €","zipcode":"51200","ville":"Épernay","address":"13 rue des Berceaux"},{"name":"Auberge La Fenière","etoile":"","note":"","type_cuisine":"Provençal; Gastronomique; Cuisine Régionale Française; Végétarien; Végétalien","prix_min":"30 ","prix_max":"50 €","zipcode":"84160","ville":"Cadenet","address":"D943"},{"name":"Toya","etoile":"","note":"","type_cuisine":"Cuisine Moderne, Créative; Végétarien; Végétalien","prix_min":"42 ","prix_max":"120 ","zipcode":"57380","ville":"Faulquemont","address":"av. Jean-Monnet"},{"name":"Auberge du Cellier","etoile":"","note":"","type_cuisine":"Cuisine Moderne, Créative; Végétarien; Végétalien","prix_min":"19 ","prix_max":"69 €","zipcode":"66720","ville":"Montner","address":"1 Rue de Sainte-Eugénie"},{"name":"Grand Hôtel du Lion d'Or","etoile":"","note":"","type_cuisine":"Cuisine Moderne, Créative; Gastronomique","prix_min":"49 ","prix_max":"200 ","zipcode":"41200","ville":"Romorantin-Lanthenay","address":"69 r. Clemenceau"},{"name":"Le Moulin de l'Abbaye","etoile":"","note":"","type_cuisine":"Cuisine Moderne, Créative; Traditionnel, Classique; Gastronomique; Végétarien","prix_min":"39 ","prix_max":"110 ","zipcode":"24310","ville":"BRANTOME","address":"1 avenue Pierre de Bourdeilles","menu":[]},{"name":"Au Vieux Couvent","etoile":"","note":"","type_cuisine":"Cuisine Moderne, Créative; Gastronomique; Végétarien","prix_min":"37 ","prix_max":"110 ","zipcode":"67860","ville":"Rhinau","address":"6 r. des Chanoines"},{"name":"La Gourmandière - La Table d'Olivier","etoile":"","note":"","type_cuisine":"Cuisine Moderne, Créative; Gastronomique; Végétarien; Végétalien","prix_min":"26 ","prix_max":"60 €","zipcode":"56000","ville":"Vannes","address":"D126"},{"name":"Le Prieuré","etoile":"","note":"","type_cuisine":"Cuisine Moderne, Créative","prix_min":"24 ","prix_max":"115 ","zipcode":"42820","ville":"Ambierle","address":"r. de la Mairie"},{"name":"La Bergerie","etoile":"","note":"","type_cuisine":"Cuisine Moderne, Créative; Gastronomique; Végétarien","prix_min":"25 ","prix_max":"75 €","zipcode":"63490","ville":"Sarpoil","address":"D999"},{"name":"Le Vivarais","etoile":"","note":"","type_cuisine":"Cuisine Moderne, Créative; Gastronomique; Cuisine Régionale Française","prix_min":"27 ","prix_max":"100 ","zipcode":"07600","ville":"VALS-LES-BAINS","address":"5 avenue Expilly"},{"name":"Les Pêcheurs","etoile":"","note":"","type_cuisine":"Méditerranéen; Poissons, Fruits de Mer; Gastronomique; Végétarien; Végétalien; Traditionnel, Classique","prix_min":" - ","prix_max":"    ","zipcode":"06600","ville":"Antibes","address":"10 boulevard du Maréchal-Juin"},{"name":"Auguste","etoile":"","note":"","type_cuisine":"Cuisine Moderne, Créative","prix_min":"37 ","prix_max":"100 ","zipcode":"75007","ville":"Paris 07","address":"54 r. Bourgogne"},{"name":"Buerehiesel","etoile":"","note":"","type_cuisine":"Cuisine Moderne, Créative; Gastronomique; Traditionnel, Classique","prix_min":"37 ","prix_max":"98 €","zipcode":"67000","ville":"Strasbourg","address":"dans le parc de l'Orangerie"},{"name":"Le Corot","etoile":"","note":"","type_cuisine":"Cuisine Moderne, Créative; Gastronomique; Traditionnel, Classique; Végétarien","prix_min":"48 ","prix_max":"110 ","zipcode":"92410","ville":"VILLE-D'AVRAY","address":"55 Rue de Versailles"},{"name":"Assa","etoile":"","note":"","type_cuisine":"Cuisine Moderne, Créative; Gastronomique; Cuisine Régionale Française; Végétarien; Végétalien; Traditionnel, Classique","prix_min":" - ","prix_max":"    ","zipcode":"41000","ville":"Blois","address":"189 Quai Ulysse Besnard"},{"name":"La Licorne Royale","etoile":"","note":"","type_cuisine":"Cuisine Moderne, Créative; Gastronomique","prix_min":"49 ","prix_max":"95 €","zipcode":"27480","ville":"Lyons-la-Forêt","address":"27 Place Isaac Benserade","menu":[]},{"name":"Le Pré - Xavier Beaudiment","etoile":"","note":"","type_cuisine":"Cuisine Moderne, Créative","prix_min":"39 ","prix_max":"129 ","zipcode":"63830","ville":"Durtol","address":"3 Route de la Baraque"},{"name":"Auberge de Clochemerle","etoile":"","note":"","type_cuisine":"Cuisine Moderne, Créative; Gastronomique","prix_min":"48 ","prix_max":"88 €","zipcode":"69460","ville":"VAUX-EN-BEAUJOLAIS","address":"Rue Gabriel-Chevallier"},{"name":"La Bastide de Capelongue","etoile":"","note":"","type_cuisine":"Cuisine Moderne, Créative","prix_min":"100","prix_max":" 210","zipcode":"84480","ville":"Bonnieux","address":"Chemin des Cabanes"},{"name":"Jérôme Feck","etoile":"","note":"","type_cuisine":"Cuisine Moderne, Créative","prix_min":"65 ","prix_max":"108 ","zipcode":"51000","ville":"Châlons-en-Champagne","address":"19 pl. Mgr-Tissier"},{"name":"L'O des Vignes","etoile":"","note":"","type_cuisine":"Cuisine Moderne, Créative; Gastronomique; Végétarien; Végétalien","prix_min":"26 ","prix_max":"80 €","zipcode":"71960","ville":"Fuissé","address":"r. du Bourg"},{"name":"La Galinette","etoile":"","note":"","type_cuisine":"Cuisine Moderne, Créative; Poissons, Fruits de Mer; Gastronomique; Végétarien; Végétalien","prix_min":"25 ","prix_max":"80 €","zipcode":"66000","ville":"Perpignan","address":"23 r. Jean Payra"},{"name":"La Table de Nans","etoile":"","note":"","type_cuisine":"Méditerranéen; Cuisine Régionale Française; Traditionnel, Classique; Poissons, Fruits de Mer; Gastronomique; Provençal","prix_min":"48 ","prix_max":"105 ","zipcode":"13600","ville":"La Ciotat","address":"corniche du Liouquet"},{"name":"JAN","etoile":"","note":"","type_cuisine":"Cuisine Moderne, Créative; Gastronomique","prix_min":"10 ","prix_max":"79 €","zipcode":"06000","ville":"Nice","address":"12 Rue Lascaris"},{"name":"L'Atelier Yssoirien","etoile":"","note":"","type_cuisine":"Cuisine Moderne, Créative; Gastronomique; Cuisine Régionale Française; Traditionnel, Classique","prix_min":"18 ","prix_max":"50 €","zipcode":"63500","ville":"Issoire","address":"39 Boulevard Triozon-Bayle"},{"name":"Girardin","etoile":"","note":"","type_cuisine":"Cuisine Moderne, Créative; Gastronomique; Végétarien","prix_min":"78 ","prix_max":"134 ","zipcode":"68000","ville":"Colmar","address":"19 Rue des Têtes"},{"name":"Alexandre","etoile":"","note":"","type_cuisine":"Cuisine Moderne, Créative; Traditionnel, Classique; Végétarien; Végétalien","prix_min":"52 ","prix_max":"118 ","zipcode":"30128","ville":"Garons","address":"2 rue Xavier Tronc"},{"name":"La Table de l'Espadon","etoile":"","note":"","type_cuisine":"Cuisine Moderne, Créative; Gastronomique","prix_min":"186","prix_max":" 396","zipcode":"75001","ville":"Paris","address":"15 Place Vendôme"},{"name":"Auberge des Templiers","etoile":"","note":"","type_cuisine":"Traditionnel, Classique; Gastronomique; Végétarien; Végétalien","prix_min":"55 ","prix_max":"90 €","zipcode":"45290","ville":"Les Bézards","address":"D2007","menu":[]},{"name":"La Chassagnette","etoile":"","note":"","type_cuisine":"Cuisine Moderne, Créative","prix_min":"55 ","prix_max":"115 ","zipcode":"13200","ville":"Arles","address":"route du Sambuc","menu":[]},{"name":"Alliance","etoile":"","note":"","type_cuisine":"Cuisine Moderne, Créative; Gastronomique","prix_min":"39 ","prix_max":"110 ","zipcode":"75005","ville":"Paris","address":"5 Rue de Poissy","menu":[["Menu Saint-Valentin 250 €","Prix par personne. Hors boisson. Le 14/02 soir.Un acompte de 250 € vous sera demandé directement par le restaurant. La réservation ne sera définitive qu’après l’encaissement de l’acompte par le restaurant."],["Menu \"Prestige\" 175€00","En réservant avec ce menu, vous pouvez, une fois sur place, soit bénéficier de ce menu, soit commander à la carte si vous changez d’avis."],["Menu Alliance 110€ et Menu Tentation 90€","Prix par personne"]]},{"name":"Les Climats","etoile":"","note":"","type_cuisine":"Cuisine Moderne, Créative","prix_min":"45 ","prix_max":"220 ","zipcode":"75007","ville":"Paris 07","address":"41 rue de Lille","menu":[["Menu Saint-Valentin 160 €","Prix par personne. Hors boisson. Le 14/02 soir.Un acompte de 50.00% vous sera demandé directement par le restaurant. La réservation ne sera définitive qu’après l’encaissement de l’acompte par le restaurant."]]},{"name":"Le Pavillon des Boulevards","etoile":"","note":"","type_cuisine":"Cuisine Moderne, Créative","prix_min":"35 ","prix_max":"130 ","zipcode":"33000","ville":"Bordeaux","address":"120 r. Croix-de-Seguey"},{"name":"Michel Trama","etoile":"","note":"","type_cuisine":"Cuisine Moderne, Créative","prix_min":"75 ","prix_max":"215 ","zipcode":"47270","ville":"Puymirol","address":"52 r. Royale"},{"name":"Emporio Armani Ristorante","etoile":"","note":"","type_cuisine":"Italien; Gastronomique; Cuisine Moderne, Créative","prix_min":"29 ","prix_max":"90 €","zipcode":"75006","ville":"Paris","address":"149 Boulevard Saint-Germain","menu":[["Menu Prestige 79€, Tout Compris !","Prix par personne. En réservant avec ce menu, vous pouvez, une fois sur place, soit bénéficier de ce menu, soit commander à la carte si vous changez d’avis."]]},{"name":"Hostellerie la Montagne","etoile":"","note":"","type_cuisine":"Cuisine Moderne, Créative; Cuisine Moderne, Créative; Gastronomique; Végétarien; Végétalien","prix_min":"28 ","prix_max":"150 ","zipcode":"52330","ville":"COLOMBEY-LES-DEUX-EGLISES","address":"10 rue Pisseloup"},{"name":"Hexagone","etoile":"","note":"","type_cuisine":"Cuisine Moderne, Créative; Gastronomique","prix_min":"49 ","prix_max":"125 ","zipcode":"75016","ville":"Paris","address":"85 Avenue Kléber"},{"name":"Le Carmin","etoile":"","note":"","type_cuisine":"Cuisine Moderne, Créative; Gastronomique","prix_min":"25 ","prix_max":"100 ","zipcode":"21200","ville":"Beaune","address":"4B Place Carnot"},{"name":"Hostellerie de l'Abbaye de la Celle","etoile":"","note":"","type_cuisine":"Méditerranéen; Cuisine Moderne, Créative; Provençal; Gastronomique; Végétarien; Végétalien","prix_min":"40 ","prix_max":"140 ","zipcode":"83170","ville":"La Celle","address":"10 Place Général de Gaulle","menu":[["Menu Saint-Valentin 120 €","Prix par personne. Hors boisson. Le 14/02 midi et soir.Un acompte de 50.00% vous sera demandé directement par le restaurant. La réservation ne sera définitive qu’après l’encaissement de l’acompte par le restaurant."]]},{"name":"La Maison des Bois - Marc Veyrat","etoile":"","note":"","type_cuisine":"Cuisine Moderne, Créative; Gastronomique","prix_min":"295","prix_max":" 395","zipcode":"74230","ville":"Manigod","address":"Chemin Rural de Manigod au Col de la Croix Fry"},{"name":"Le 1947","etoile":"","note":"","type_cuisine":"Cuisine Moderne, Créative; Cuisine Moderne, Créative; Gastronomique; Végétarien; Végétalien","prix_min":"127","prix_max":" 450","zipcode":"73120","ville":"Courchevel 1850","address":"Cheval Blanc Courchevel - Le Jardin Alpin"},{"name":"Le Grand Cap","etoile":"","note":"","type_cuisine":"Cuisine Moderne, Créative","prix_min":"34 ","prix_max":"130 ","zipcode":"11370","ville":"Leucate","address":"chemin du Phare"},{"name":"Loiseau rive Gauche","etoile":"","note":"","type_cuisine":"Traditionnel, Classique; Gastronomique; Bourguignon","prix_min":"29 ","prix_max":"95 €","zipcode":"75007","ville":"Paris 07","address":"5 rue Bourgogne","menu":[["Menu Saint-Valentin 120 €","Prix par personne. Hors boisson. Le 14/02 soir."],["Menu Soirée oenologique \"domaine Yves Cuilleron de la Vallée du Rhône nord\" 120€",""],["Menus \"Nature instantanée\" de 42€ à 90€","Prix par personne. 3 menus au choix."]]},{"name":"L'Amphitryon","etoile":"","note":"","type_cuisine":"Cuisine Moderne, Créative; Végétarien; Végétalien","prix_min":"38 ","prix_max":"149 ","zipcode":"31770","ville":"Colomiers","address":"chemin de Gramont"},{"name":"Maison Lameloise","etoile":"","note":"","type_cuisine":"Cuisine Moderne, Créative; Gastronomique","prix_min":"82 ","prix_max":"215 ","zipcode":"71150","ville":"Chagny","address":"36 pl. d'Armes","menu":[]},{"name":"L'Escarbille","etoile":"","note":"","type_cuisine":"Cuisine Moderne, Créative; Gastronomique","prix_min":"42 ","prix_max":"69 €","zipcode":"92190","ville":"Meudon","address":"8 Rue de Vélizy"},{"name":"La Palme d'Or","etoile":"","note":"","type_cuisine":"Cuisine Moderne, Créative","prix_min":"74 ","prix_max":"185 ","zipcode":"06400","ville":"Cannes","address":"73 Boulevard de la Croisette","menu":[]},{"name":"Thierry Drapeau","etoile":"","note":"","type_cuisine":"Cuisine Moderne, Créative; Gastronomique; Végétarien","prix_min":"58 ","prix_max":"148 ","zipcode":"85260","ville":"Saint-Sulpice-le-Verdon","address":"La Chabotterie"},{"name":"Chapelle Saint-Martin","etoile":"","note":"","type_cuisine":"Cuisine Moderne, Créative; Gastronomique; Traditionnel, Classique; Végétarien; Végétalien","prix_min":"55 ","prix_max":"89 €","zipcode":"87510","ville":"Nieul","address":"33, Saint Martin du Fault"},{"name":"Benoit","etoile":"","note":"","type_cuisine":"Traditionnel, Classique","prix_min":"39 ","prix_max":"100 ","zipcode":"75004","ville":"Paris 04","address":"20 Rue St-Martin"},{"name":"Le Raisin","etoile":"","note":"","type_cuisine":"Cuisine Moderne, Créative; Cuisine Régionale Française; Végétarien; Végétalien; Traditionnel, Classique","prix_min":"23 ","prix_max":"75 €","zipcode":"01190","ville":"Pont-de-Vaux","address":"2 pl. M. -Poisat"},{"name":"Le Jasmin","etoile":"","note":"","type_cuisine":"Cuisine Moderne, Créative; Gastronomique; Cuisines du Sud-Ouest; Végétarien; Végétalien; Bistrot","prix_min":" - ","prix_max":"    ","zipcode":"47140","ville":"Saint-Sylvestre-sur-Lot","address":"Lieu-dit Lalande"},{"name":"Hostellerie de Plaisance","etoile":"","note":"","type_cuisine":"Cuisine Moderne, Créative; Gastronomique","prix_min":"68 ","prix_max":"156 ","zipcode":"33330","ville":"Saint-Emilion","address":"5 place du Clocher","menu":[["Menu Découverte 68€","Prix par personne."],["Menu Carte Blanche 185€","Prix par personne. Hors boisson."],["Menu Plaisance 135€","Prix par personne. Hors boisson."]]},{"name":"Domaine des Hauts de Loire","etoile":"","note":"","type_cuisine":"Traditionnel, Classique; Cuisine Moderne, Créative; Végétarien; Végétalien","prix_min":"49 ","prix_max":"165 ","zipcode":"41150","ville":"Onzain","address":"79 rue Gilbert Navard"},{"name":"Au Souper Fin","etoile":"","note":"","type_cuisine":"Cuisine Moderne, Créative","prix_min":"30 ","prix_max":"75 €","zipcode":"76690","ville":"Frichemesnil","address":"1 rte de Clères"},{"name":"Domaine des Séquoias","etoile":"","note":"","type_cuisine":"Cuisine Moderne, Créative; Gastronomique; Végétarien; Végétalien","prix_min":"40 ","prix_max":"130 ","zipcode":"38300","ville":"Ruy","address":"54 Vie-de-Boussieu","menu":[["Menu  70€","En réservant avec ce menu, vous pouvez, une fois sur place, soit bénéficier de ce menu, soit commander à la carte si vous changez d’avis.Menu \"Suite Nº7\""],["Menu Affaire 40€","By booking this set menu, you will be able to order either this set menu or \"à la carte\" if you change your mind."],["Menu \"Suite Nº11\"  130€","."]]},{"name":"Le Restaurant","etoile":"","note":"","type_cuisine":"Cuisine Moderne, Créative; Gastronomique","prix_min":"35 ","prix_max":"124 ","zipcode":"75006","ville":"Paris 06","address":"13 rue des Beaux-Arts"},{"name":"Mickaël Féval","etoile":"","note":"","type_cuisine":"Cuisine Moderne, Créative; Gastronomique; Traditionnel, Classique; Végétarien","prix_min":"29 ","prix_max":"90 €","zipcode":"13100","ville":"Aix-en-Provence","address":"11 Petite-Rue-St-Jean","menu":[["Menu Saint-Valentin 135 €","Prix par personne. Hors boisson. Le 14/02 soir.Un acompte de 60 € vous sera demandé directement par le restaurant. La réservation ne sera définitive qu’après l’encaissement de l’acompte par le restaurant."],["Menu Déjeuner 29€ et 35€","Prix par personne. En réservant avec ce menu, vous pouvez, une fois sur place, soit bénéficier de ce menu, soit commander à la carte si vous changez d’avis."],["Menu Dégustation 87€","Prix par personne. En réservant avec ce menu, vous pouvez, une fois sur place, soit bénéficier de ce menu, soit commander à la carte si vous changez d’avis."],["Menu Tentation 63€","Prix par personne. En réservant avec ce menu, vous pouvez, une fois sur place, soit bénéficier de ce menu, soit commander à la carte si vous changez d’avis."]]},{"name":"L'Oustau de Baumanière","etoile":"","note":"","type_cuisine":"Cuisine Moderne, Créative; Gastronomique; Provençal; Végétarien","prix_min":"100","prix_max":" 295","zipcode":"13520","ville":"Les Baux-de-Provence","address":"Village des Baux-de-Provence"},{"name":"Le Cinq","etoile":"","note":"","type_cuisine":"Cuisine Moderne, Créative; Végétarien; Végétalien","prix_min":"145","prix_max":" 400","zipcode":"75008","ville":"Paris 08","address":"31 av. George V"},{"name":"Gavroche","etoile":"","note":"","type_cuisine":"Cuisine Moderne, Créative","prix_min":"37 ","prix_max":"94 €","zipcode":"67000","ville":"Strasbourg","address":"4 r. Klein"},{"name":"La Bastide de Moustiers","etoile":"","note":"","type_cuisine":"Provençal; Végétarien; Végétalien","prix_min":"60 ","prix_max":"90 €","zipcode":"04360","ville":"Moustiers-Sainte-Marie","address":"Parc naturel régional du Verdon, Chemin de Quinson","menu":[]},{"name":"L'Atelier de Gaztelur","etoile":"","note":"","type_cuisine":"Cuisine Moderne, Créative; Gastronomique","prix_min":"38 ","prix_max":"115 ","zipcode":"64200","ville":"Arcangues","address":"Chemin de Gastelhur"},{"name":"La Madeleine","etoile":"","note":"","type_cuisine":"Cuisine Moderne, Créative; Gastronomique; Végétarien; Végétalien","prix_min":"49.","prix_max":"à 67","zipcode":"89100","ville":"Sens","address":"1 Rue Alsace-Lorraine"},{"name":"Yoann Conte","etoile":"","note":"","type_cuisine":"Cuisine Moderne, Créative; Gastronomique; Traditionnel, Classique; Végétarien","prix_min":"98 ","prix_max":"225 ","zipcode":"74290","ville":"Veyrier-du-Lac","address":"13 Vieille-Route-des-Pensières"},{"name":"Transparence \"La Table de Patrick Fréchin\"","etoile":"","note":"","type_cuisine":"Cuisine Moderne, Créative; Traditionnel, Classique; Végétarien; Végétalien","prix_min":"29 ","prix_max":"70 €","zipcode":"54000","ville":"Nancy","address":"28 r. Stanislas"},{"name":"La Table d'Hôtes - Le Quatrième Mur","etoile":"","note":"","type_cuisine":"Cuisine Moderne, Créative","prix_min":" - ","prix_max":"€   ","zipcode":"33000","ville":"Bordeaux","address":"2 pl. de la Comédie"},{"name":"Le Sénéchal","etoile":"","note":"","type_cuisine":"Cuisine Moderne, Créative; Végétarien; Végétalien","prix_min":"40 ","prix_max":"120 ","zipcode":"12800","ville":"Sauveterre-de-Rouergue","address":"Sauveterre de Rouergue"},{"name":"Chez Michèle","etoile":"","note":"","type_cuisine":"Cuisine Moderne, Créative","prix_min":"25 ","prix_max":"140 ","zipcode":"57810","ville":"Languimberg","address":"57 rue Principale","menu":[]},{"name":"Le Grand Véfour","etoile":"","note":"","type_cuisine":"Cuisine Moderne, Créative; Gastronomique; Végétarien; Végétalien","prix_min":"115","prix_max":" 315","zipcode":"75001","ville":"Paris","address":"17 rue de Beaujolais"},{"name":"Penati al Baretto","etoile":"","note":"","type_cuisine":"Italien; Gastronomique; Cuisine Moderne, Créative","prix_min":"39 ","prix_max":"95 €","zipcode":"75008","ville":"Paris 08","address":"9 rue Balzac"},{"name":"Maximin Hellio","etoile":"","note":"","type_cuisine":"Cuisine Moderne, Créative; Gastronomique; Végétarien","prix_min":"35 ","prix_max":"125 ","zipcode":"14800","ville":"DEAUVILLE","address":"64 Rue Gambetta"},{"name":"Le Vieux Logis","etoile":"","note":"","type_cuisine":"Traditionnel, Classique","prix_min":"50 ","prix_max":"120 ","zipcode":"24510","ville":"Trémolat","address":"Le Bourg","menu":[["Menu \"Balade Aquitaine\" Accord Mets et Vins 110€","Prix par personne."],["Menu Tapas 49€","Prix par personne. Menu imposé : Il ne sera pas possible de commander à la carte. Du lundi au vendredi, le midi. Non disponible les jours fériés."]]},{"name":"Château de la Treyne","etoile":"","note":"","type_cuisine":"Traditionnel, Classique","prix_min":"50 ","prix_max":"145 ","zipcode":"","ville":"","address":"46200"},{"name":"Frédéric Simonin","etoile":"","note":"","type_cuisine":"Cuisine Moderne, Créative; Gastronomique","prix_min":"44 ","prix_max":"155 ","zipcode":"75017","ville":"Paris","address":"25 rue Bayen"},{"name":"Loiseau des Ducs","etoile":"","note":"","type_cuisine":"Cuisine Moderne, Créative; Gastronomique; Traditionnel, Classique; Végétarien; Végétalien","prix_min":"23 ","prix_max":"105 ","zipcode":"21000","ville":"Dijon","address":"3 Rue Vauban"},{"name":"Les Terrasses de Lyon","etoile":"","note":"","type_cuisine":"Traditionnel, Classique; Cuisine Moderne, Créative; Cuisine Régionale Française; Gastronomique","prix_min":"39 ","prix_max":"115 ","zipcode":"69005","ville":"Lyon 05","address":"25, montée Saint BArthelémy"},{"name":"La Bonne Étape","etoile":"","note":"","type_cuisine":"Provençal; Cuisine Moderne, Créative; Traditionnel, Classique","prix_min":"35 ","prix_max":"75 €","zipcode":"04160","ville":"Château-Arnoux","address":"chemin du lac"},{"name":"Maison Clovis","etoile":"","note":"","type_cuisine":"Cuisine Moderne, Créative; Gastronomique","prix_min":"32 ","prix_max":"95 €","zipcode":"69006","ville":"Lyon","address":"19 bd Brotteaux"},{"name":"L'Éveil des Sens","etoile":"","note":"","type_cuisine":"Cuisine Moderne, Créative","prix_min":"22 ","prix_max":"73 €","zipcode":"53100","ville":"Mayenne","address":"429 bd Paul-Lintier"},{"name":"Le Kintessence","etoile":"","note":"","type_cuisine":"Cuisine Moderne, Créative; Cuisine Moderne, Créative; Gastronomique; Végétarien; Végétalien","prix_min":"160","prix_max":" 300","zipcode":"73120","ville":"Courchevel 1850","address":"Rue des Clarines"},{"name":"Saturne","etoile":"","note":"","type_cuisine":"Cuisine Moderne, Créative","prix_min":"45 ","prix_max":"85 €","zipcode":"75002","ville":"Paris","address":"17 r. N.-D.-des-Victoires","menu":[]},{"name":"Jin","etoile":"","note":"","type_cuisine":"Japonais; Sushi; Poissons, Fruits de Mer","prix_min":"95 ","prix_max":"145 ","zipcode":"75001","ville":"Paris","address":"6 Rue de la Sourdière","menu":[["Menu Saint-Valentin 220 €","Prix par personne. Hors boisson. Le 14/02 midi et soir.Un acompte de 50% vous sera demandé directement par le restaurant. La réservation ne sera définitive qu’après l’encaissement de l’acompte par le restaurant."],["Menu Déjeuner 95€","En réservant avec ce menu, vous pouvez, une fois sur place, soit bénéficier de ce menu, soit commander à la carte si vous changez d’avis."],["Menu 145€","Prix par personne. Menu unique : il ne sera pas possible de commander à la carte."]]},{"name":"Auberge des Saints Pères","etoile":"","note":"","type_cuisine":"Cuisine Moderne, Créative; Traditionnel, Classique","prix_min":"43 ","prix_max":"90 €","zipcode":"93600","ville":"Aulnay-sous-Bois","address":"212 av. de Nonneville"},{"name":"La Petite Maison de Cucuron","etoile":"","note":"","type_cuisine":"Cuisine Moderne, Créative","prix_min":"60 ","prix_max":"90 €","zipcode":"84160","ville":"Cucuron","address":"pl. de l'Étang"},{"name":"La Marande","etoile":"","note":"","type_cuisine":"Cuisine Moderne, Créative","prix_min":"30 ","prix_max":"90 €","zipcode":"71260","ville":"Montbellet","address":"lieu-dit Mirande"},{"name":"William Frachot","etoile":"","note":"","type_cuisine":"Cuisine Moderne, Créative; Gastronomique; Végétarien; Végétalien","prix_min":"55 ","prix_max":"90 €","zipcode":"21000","ville":"DIJON","address":"5 rue Michelet"},{"name":"Le Pily","etoile":"","note":"","type_cuisine":"Cuisine Moderne, Créative","prix_min":"30 ","prix_max":"115 ","zipcode":"50100","ville":"Cherbourg-en-Cotentin","address":"39 Grande-Rue"},{"name":"Les Jardins de l'Espadon","etoile":"","note":"","type_cuisine":"Cuisine Moderne, Créative; Traditionnel, Classique; Gastronomique","prix_min":"120","prix_max":" 145","zipcode":"75001","ville":"Paris","address":"15 place Vendôme"},{"name":"Miraflores","etoile":"","note":"","type_cuisine":"Péruvien; Gastronomique; Cuisine Moderne, Créative","prix_min":"70 ","prix_max":"110 ","zipcode":"69006","ville":"Lyon","address":"60 r. Garibaldi"},{"name":"La Ville Blanche","etoile":"","note":"","type_cuisine":"Cuisine Moderne, Créative","prix_min":"37 ","prix_max":"85 €","zipcode":"22300","ville":"Rospez","address":"La Ville Blanche"},{"name":"Pic","etoile":"","note":"","type_cuisine":"Cuisine Moderne, Créative; Végétarien; Végétalien","prix_min":"110","prix_max":" 330","zipcode":"26000","ville":"Valence","address":"285 avenue Victor Hugo"},{"name":"Il Carpaccio","etoile":"","note":"","type_cuisine":"Italien; Végétarien; Végétalien","prix_min":"45 ","prix_max":"145 ","zipcode":"75008","ville":"Paris 08","address":"37 avenue Hoche"},{"name":"Stéphane Tournié - Les Jardins de l'Opéra","etoile":"","note":"","type_cuisine":"Cuisine Moderne, Créative; Gastronomique","prix_min":"32 ","prix_max":"99 €","zipcode":"31000","ville":"Toulouse","address":"1 place du Capitole"},{"name":"La Voile","etoile":"","note":"","type_cuisine":"Cuisine Moderne, Créative; Tapas; Gastronomique; Végétarien; Végétalien","prix_min":"102","prix_max":" 129","zipcode":"83350","ville":"Ramatuelle","address":"chemin de la Quessine"},{"name":"Le Gambetta","etoile":"","note":"","type_cuisine":"Cuisine Moderne, Créative","prix_min":"30 ","prix_max":"107 ","zipcode":"49400","ville":"Saumur","address":"12 r. Gambetta"},{"name":"La Marelle","etoile":"","note":"","type_cuisine":"Cuisine Moderne, Créative; Gastronomique; Végétarien; Végétalien","prix_min":"42 ","prix_max":"95 €","zipcode":"01960","ville":"Péronnas","address":"1593 av. de Lyon"},{"name":"Laurent","etoile":"","note":"","type_cuisine":"Traditionnel, Classique","prix_min":"95 ","prix_max":"245 ","zipcode":"75008","ville":"Paris","address":"41 av. Gabriel"},{"name":"Auberge St-Jean","etoile":"","note":"","type_cuisine":"Cuisine Moderne, Créative; Traditionnel, Classique","prix_min":"42 ","prix_max":"70 €","zipcode":"33420","ville":"Saint-Jean-de-Blaignac","address":"8 r. du Pont"},{"name":"Loiseau des Vignes","etoile":"","note":"","type_cuisine":"Cuisine Moderne, Créative; Traditionnel, Classique; Cuisine Régionale Française; Gastronomique; Végétarien; Végétalien","prix_min":"23 ","prix_max":"119 ","zipcode":"21200","ville":"Beaune","address":"31 Rue Jean Francois Maufoux"},{"name":"Ar Men Du","etoile":"","note":"","type_cuisine":"Cuisine Moderne, Créative; Gastronomique; Poissons, Fruits de Mer; Végétarien; Végétalien","prix_min":"49 ","prix_max":"104 ","zipcode":"29920","ville":"Névez","address":"47 rue des îles"},{"name":"L'Auberge de la Pomme","etoile":"","note":"","type_cuisine":"Cuisine Moderne, Créative; Gastronomique","prix_min":"27 ","prix_max":"85 €","zipcode":"27340","ville":"Les Damps","address":"44 rue de l' eure"},{"name":"Le Gourmet de Sèze","etoile":"","note":"","type_cuisine":"Traditionnel, Classique; Gastronomique; Cuisine Moderne, Créative","prix_min":"38 ","prix_max":"125 ","zipcode":"69006","ville":"Lyon","address":"125 Rue de Sèze"},{"name":"Baumanière 1850","etoile":"","note":"","type_cuisine":"Cuisine Moderne, Créative","prix_min":"160","prix_max":" 220","zipcode":"73120","ville":"Courchevel 1850","address":"rte de Bellecôte"},{"name":"Le Relais Bernard Loiseau","etoile":"","note":"","type_cuisine":"Traditionnel, Classique; Cuisine Moderne, Créative; Gastronomique; Cuisine Régionale Française; Végétarien; Végétalien","prix_min":"75 ","prix_max":"250 ","zipcode":"21210","ville":"Saulieu","address":"2, rue d'Argentine"},{"name":"Likoké","etoile":"","note":"","type_cuisine":"Cuisine Moderne, Créative","prix_min":"85 ","prix_max":"169 ","zipcode":"07140","ville":"Les Vans","address":"7 rte de Païolive"},{"name":"Yam'Tcha","etoile":"","note":"","type_cuisine":"Cuisine Moderne, Créative","prix_min":"70 ","prix_max":"150 ","zipcode":"75001","ville":"Paris","address":"121 r. St-Honoré"},{"name":"Le Cloître","etoile":"","note":"","type_cuisine":"Cuisine Moderne, Créative; Provençal; Gastronomique","prix_min":"75 ","prix_max":"135 ","zipcode":"04300","ville":"Mane","address":"Le Cloitre"},{"name":"L'Arnsbourg","etoile":"","note":"","type_cuisine":"Cuisine Moderne, Créative; Gastronomique","prix_min":"55 ","prix_max":"133 ","zipcode":"57230","ville":"Baerenthal","address":"Untermuhlthal"},{"name":"1217","etoile":"","note":"","type_cuisine":"Cuisine Moderne, Créative; Gastronomique; Végétarien; Végétalien","prix_min":"65 ","prix_max":"140 ","zipcode":"69620","ville":"Bagnols","address":"le bourg"},{"name":"U Santa Marina","etoile":"","note":"","type_cuisine":"Cuisine Moderne, Créative","prix_min":"69 ","prix_max":"125 ","zipcode":"20137","ville":"Porto-Vecchio","address":"Marina di Santa Giulia"},{"name":"La Table des Cordeliers","etoile":"","note":"","type_cuisine":"Cuisine Moderne, Créative","prix_min":"60 ","prix_max":"90 €","zipcode":"32100","ville":"Condom","address":"1 r. des Cordeliers"},{"name":"Les Terraillers","etoile":"","note":"","type_cuisine":"Cuisine Moderne, Créative; Traditionnel, Classique; Gastronomique; Végétarien; Provençal","prix_min":"43 ","prix_max":"125 ","zipcode":"06410","ville":"Biot","address":"11 Route Chemin-Neuf"},{"name":"Château de Sully","etoile":"","note":"","type_cuisine":"Cuisine Moderne, Créative; Gastronomique; Végétarien; Végétalien","prix_min":"65 ","prix_max":"95 €","zipcode":"14400","ville":"Sully","address":"D6"},{"name":"Hostellerie Les Gorges de Pennafort","etoile":"","note":"","type_cuisine":"Cuisine Moderne, Créative; Gastronomique; Végétarien; Végétalien","prix_min":"59 ","prix_max":"160 ","zipcode":"83830","ville":"Callas","address":"8660 RD 25"},{"name":"L'Essentiel","etoile":"","note":"","type_cuisine":"Cuisine Moderne, Créative; Végétarien; Végétalien; Traditionnel, Classique","prix_min":"18 ","prix_max":"65 €","zipcode":"14800","ville":"DEAUVILLE","address":"29 Rue Mirabeau"},{"name":"Pierre Orsi","etoile":"","note":"","type_cuisine":"Traditionnel, Classique; Cuisine Moderne, Créative; Gastronomique; Végétarien; Végétalien","prix_min":"60 ","prix_max":"115 ","zipcode":"69006","ville":"Lyon 06","address":"Place Kléber"},{"name":"La Promenade","etoile":"","note":"","type_cuisine":"Cuisine Moderne, Créative","prix_min":"43 ","prix_max":"100 ","zipcode":"37350","ville":"Le Petit-Pressigny","address":"11 rue du Savoureulx"},{"name":"Gaya Rive Gauche par Pierre Gagnaire","etoile":"","note":"","type_cuisine":"Poissons, Fruits de Mer; Gastronomique","prix_min":"48 ","prix_max":"110 ","zipcode":"75007","ville":"Paris","address":"44 r. du Bac"},{"name":"Montée","etoile":"","note":"","type_cuisine":"Cuisine Moderne, Créative","prix_min":"32 ","prix_max":"80 €","zipcode":"75014","ville":"Paris","address":"9 r. Léopold-Robert"},{"name":"Le Beaulieu","etoile":"","note":"","type_cuisine":"Cuisine Moderne, Créative; Gastronomique","prix_min":"29 ","prix_max":"88 €","zipcode":"72000","ville":"Le Mans","address":"34 Bis Place République"},{"name":"Le 7ème Continent","etoile":"","note":"","type_cuisine":"Cuisine Moderne, Créative; Gastronomique; Cuisine Régionale Française; Végétarien; Végétalien","prix_min":"25 ","prix_max":"68 €","zipcode":"68170","ville":"Rixheim","address":"35 av. Gén. -de-Gaulle"},{"name":"Mère Brazier","etoile":"","note":"","type_cuisine":"Cuisine Moderne, Créative; Gastronomique","prix_min":"70 ","prix_max":"180 ","zipcode":"69001","ville":"LYON","address":"12 rue Royale"},{"name":"En Marge","etoile":"","note":"","type_cuisine":"Cuisine Moderne, Créative; Gastronomique; Végétarien; Végétalien","prix_min":"34 ","prix_max":"145 ","zipcode":"31320","ville":"AUREVILLE","address":"1204 rte de la Croix-Falgarde"},{"name":"Les Trois Rochers","etoile":"","note":"","type_cuisine":"Cuisine Moderne, Créative; Gastronomique; Végétarien; Végétalien","prix_min":"49 ","prix_max":"84 €","zipcode":"29120","ville":"Sainte-Marine","address":"16 rue du Phare"},{"name":"Le Chabichou","etoile":"","note":"","type_cuisine":"Traditionnel, Classique; Gastronomique; Végétarien; Végétalien","prix_min":"75 ","prix_max":"275 ","zipcode":"73120","ville":"Courchevel 1850","address":"90 Route des Chenus"},{"name":"Hostellerie de Levernois","etoile":"","note":"","type_cuisine":"Cuisine Moderne, Créative; Traditionnel, Classique; Gastronomique; Cuisine Régionale Française","prix_min":"70 ","prix_max":"115 ","zipcode":"21200","ville":"Levernois","address":"Rue du Golf"},{"name":"Auberge St-Laurent","etoile":"","note":"","type_cuisine":"Cuisine Moderne, Créative; Gastronomique; Traditionnel, Classique","prix_min":"33 ","prix_max":"88 €","zipcode":"68510","ville":"Sierentz","address":"1 rue Fontaine"},{"name":"Maison Decoret","etoile":"","note":"","type_cuisine":"Cuisine Moderne, Créative; Gastronomique; Végétarien; Végétalien","prix_min":"42 ","prix_max":"122 ","zipcode":"03200","ville":"Vichy","address":"15 rue du Parc"},{"name":"Terre-Mer","etoile":"","note":"","type_cuisine":"Cuisine Moderne, Créative","prix_min":"25 ","prix_max":"115 ","zipcode":"56400","ville":"Auray","address":"16 r. du Jeu-de-Paume"},{"name":"L'Archeste","etoile":"","note":"","type_cuisine":"Cuisine Moderne, Créative; Gastronomique","prix_min":"48 ","prix_max":"98 €","zipcode":"75116","ville":"Paris","address":"79 rue de la Tour","menu":[["Menu Saint-Valentin 180 €","Prix par personne. Hors boisson. Le 14/02 soir.Un acompte de 100 € vous sera demandé directement par le restaurant. La réservation ne sera définitive qu’après l’encaissement de l’acompte par le restaurant."],["Menu autour de la Truffe et Caviar 180€","Prix par personne. Hors boissons."],["Menu Carte Blanche le Soir 98€","Prix par personne. Hors boisson."],["Menu Carte Blanche le Midi 48€ et 68€","Prix par personne.\nHors boisson."]]},{"name":"Lou Cigalon-Maison Martin","etoile":"","note":"","type_cuisine":"Cuisine Moderne, Créative; Gastronomique; Cuisine Régionale Française","prix_min":"25 ","prix_max":"80 €","zipcode":"06560","ville":"Valbonne","address":"6 bd Carnot"},{"name":"Le Vivier","etoile":"","note":"","type_cuisine":"Cuisine Moderne, Créative; Gastronomique","prix_min":"26 ","prix_max":"85 €","zipcode":"84800","ville":"L'Isle-sur-la-Sorgue","address":"800 cours F. Peyre (rte de Carpentras)","menu":[["Menu  85€","En réservant avec ce menu, vous pouvez, une fois sur place, soit bénéficier de ce menu, soit commander à la carte si vous changez d’avis."],["Menu  58€","En réservant avec ce menu, vous pouvez, une fois sur place, soit bénéficier de ce menu, soit commander à la carte si vous changez d’avis."],["Menu du \"Marché\" 32€","Menu disponible du mardi au jeudi, le midi uniquement.\nHors jours fériés"]]},{"name":"Auberge du Vert Mont","etoile":"","note":"","type_cuisine":"Cuisine Moderne, Créative; Traditionnel, Classique","prix_min":"21 ","prix_max":"60 €","zipcode":"59299","ville":"Boeschepe","address":"1318 r. du Mont-Noir"},{"name":"L'Orangerie du Château","etoile":"","note":"","type_cuisine":"Cuisine Moderne, Créative; Gastronomique; Traditionnel, Classique","prix_min":"39 ","prix_max":"112 ","zipcode":"41000","ville":"Blois","address":"1 Avenue du Docteur Jean Laigret"},{"name":"L'Épuisette","etoile":"","note":"","type_cuisine":"Poissons, Fruits de Mer; Cuisine Moderne, Créative; Végétarien; Végétalien","prix_min":"70 ","prix_max":"105 ","zipcode":"13007","ville":"Marseille","address":"158 Vallon-des-Auffes"},{"name":"L'Amaryllis","etoile":"","note":"","type_cuisine":"Cuisine Moderne, Créative; Végétarien","prix_min":"28 ","prix_max":"65 €","zipcode":"71100","ville":"Saint-Rémy","address":"chemin de Martorey"},{"name":"Le Bois sans Feuilles","etoile":"","note":"","type_cuisine":"Cuisine Moderne, Créative","prix_min":"140","prix_max":" 250","zipcode":"42155","ville":"Ouches","address":"728 Route de Villerest"},{"name":"Château de Mirambeau","etoile":"","note":"","type_cuisine":"Traditionnel, Classique","prix_min":"50 ","prix_max":"120 ","zipcode":"17150","ville":"Mirambeau","address":"1 Avenue des Comtes Duchatel"},{"name":"René et Maxime Meilleur","etoile":"","note":"","type_cuisine":"Cuisine Moderne, Créative; Gastronomique; Cuisine Régionale Française","prix_min":"140","prix_max":" 295","zipcode":"73440","ville":"Saint-Martin-de-Belleville","address":"Saint Marcel"},{"name":"Une Table au Sud","etoile":"","note":"","type_cuisine":"Cuisine Moderne, Créative","prix_min":"34 ","prix_max":"135 ","zipcode":"13002","ville":"Marseille","address":"2 quai du Port"},{"name":"L'Auberge Basque","etoile":"","note":"","type_cuisine":"Cuisine Moderne, Créative; Traditionnel, Classique; Végétarien; Végétalien","prix_min":"29 ","prix_max":"71 €","zipcode":"64310","ville":"Saint-Pée-sur-Nivelle","address":"quartier Helbarron"},{"name":"L'Aubergade","etoile":"","note":"","type_cuisine":"Cuisine Moderne, Créative","prix_min":"45 ","prix_max":"100 ","zipcode":"80480","ville":"Dury","address":"78 rte Nationale"},{"name":"Raphaël Vionnet","etoile":"","note":"","type_cuisine":"Cuisine Moderne, Créative; Gastronomique; Végétarien; Végétalien","prix_min":"58 ","prix_max":"103 ","zipcode":"74200","ville":"Thonon-les-Bains","address":"43 Avenue du Général Leclerc"},{"name":"Domaine de Rochevilaine","etoile":"","note":"","type_cuisine":"Cuisine Moderne, Créative; Traditionnel, Classique","prix_min":"42 ","prix_max":"77 €","zipcode":"56190","ville":"Billiers","address":"à la Pointe de Pen Lan"},{"name":"Le George","etoile":"","note":"","type_cuisine":"Italien; Gastronomique; Cuisine Moderne, Créative; Traditionnel, Classique","prix_min":"65 ","prix_max":"110 ","zipcode":"75008","ville":"Paris","address":"31 Avenue George V"},{"name":"Stéphane Derbord","etoile":"","note":"","type_cuisine":"Cuisine Moderne, Créative; Gastronomique; Traditionnel, Classique","prix_min":"28 ","prix_max":"90 €","zipcode":"21000","ville":"Dijon","address":"10 Place du Président Wilson"},{"name":"Table - Bruno Verjus","etoile":"","note":"","type_cuisine":"Cuisine Moderne, Créative","prix_min":"29 ","prix_max":"101 ","zipcode":"75012","ville":"Paris","address":"3 r. de Prague"},{"name":"Le Mascaret","etoile":"","note":"","type_cuisine":"Cuisine Moderne, Créative; Cuisine Moderne, Créative; Gastronomique; Poissons, Fruits de Mer; Végétarien; Végétalien","prix_min":"25 ","prix_max":"48 €","zipcode":"50560","ville":"Blainville-sur-Mer","address":"1 r. de Bas"},{"name":"Brikéténia","etoile":"","note":"","type_cuisine":"Cuisine Moderne, Créative; Traditionnel, Classique","prix_min":"35 ","prix_max":"98 €","zipcode":"64210","ville":"Guéthary","address":"142 r. de l'Église"},{"name":"Qui plume la Lune","etoile":"","note":"","type_cuisine":"Cuisine Moderne, Créative; Gastronomique; Végétarien; Végétalien","prix_min":"45 ","prix_max":"130 ","zipcode":"75011","ville":"Paris 11","address":"50 r. Amelot"},{"name":"Le Cap","etoile":"","note":"","type_cuisine":"Cuisine Moderne, Créative; Cuisine Régionale Française; Provençal","prix_min":"154","prix_max":" 242","zipcode":"06230","ville":"SAINT-JEAN-CAP-FERRAT","address":"71 Boulevard du Général-de-Gaulle"},{"name":"Alan Geaam","etoile":"","note":"","type_cuisine":"Cuisine Moderne, Créative; Gastronomique","prix_min":"40 ","prix_max":"80 €","zipcode":"75016","ville":"Paris","address":"19 Rue Lauriston"},{"name":"64° Le Restaurant","etoile":"","note":"","type_cuisine":"Cuisine Moderne, Créative; Gastronomique","prix_min":"55 ","prix_max":"178 ","zipcode":"68240","ville":"Kaysersberg","address":"9-13 Rue du Général de Gaulle"},{"name":"Château de Courban","etoile":"","note":"","type_cuisine":"Cuisine Moderne, Créative; Gastronomique; Végétarien; Végétalien; Traditionnel, Classique","prix_min":"47 ","prix_max":"90 €","zipcode":"21520","ville":"Courban","address":"7 rue du Lavoir"},{"name":"Régis et Jacques Marcon","etoile":"","note":"","type_cuisine":"Cuisine Moderne, Créative","prix_min":"130","prix_max":" 180","zipcode":"43290","ville":"SAINT-BONNET-LE-FROID","address":"Larsiallas"},{"name":"G.a. au Manoir de Rétival","etoile":"","note":"","type_cuisine":"Cuisine Moderne, Créative; Cuisine Moderne, Créative","prix_min":"98 ","prix_max":"149 ","zipcode":"76490","ville":"Caudebec-en-Caux","address":"Corniche de Rétival"},{"name":"La Coquerie","etoile":"","note":"","type_cuisine":"Cuisine Moderne, Créative","prix_min":"39 ","prix_max":"65 €","zipcode":"34200","ville":"Sète","address":"1 chemin du Cimetière-Marin"},{"name":"Fontevraud Le Restaurant","etoile":"","note":"","type_cuisine":"Cuisine Moderne, Créative; Gastronomique","prix_min":"58 ","prix_max":"105 ","zipcode":"49590","ville":"FONTEVRAUD-L'ABBAYE","address":"38 rue St-Jean-de-l'Habit"},{"name":"Le Kléber","etoile":"","note":"","type_cuisine":"Cuisine Moderne, Créative; Gastronomique","prix_min":"35 ","prix_max":"74 €","zipcode":"26400","ville":"Crest","address":"6 r. A. -Dumont"},{"name":"Le Jardin des Plumes","etoile":"","note":"","type_cuisine":"Cuisine Moderne, Créative; Gastronomique; Végétarien; Végétalien","prix_min":"45 ","prix_max":"93 €","zipcode":"27620","ville":"Giverny","address":"1 Rue du Milieu"},{"name":"Les Tables de Gaspard","etoile":"","note":"","type_cuisine":"Cuisine Moderne, Créative; Traditionnel, Classique","prix_min":"24 ","prix_max":"65 €","zipcode":"05600","ville":"St-Crépin","address":"r. Principale"},{"name":"Le Georges","etoile":"","note":"","type_cuisine":"Cuisine Moderne, Créative; Gastronomique; Végétarien; Végétalien","prix_min":"50 ","prix_max":"95 €","zipcode":"28000","ville":"CHARTRES","address":"22 pl. des Épars"},{"name":"Auberge du Dun","etoile":"","note":"","type_cuisine":"Traditionnel, Classique; Cuisine Moderne, Créative","prix_min":"30 ","prix_max":"110 ","zipcode":"76740","ville":"Le Bourg-Dun","address":"3 rte de Dieppe"},{"name":"Auberge du Vieux Puits","etoile":"","note":"","type_cuisine":"Cuisine Moderne, Créative; Végétarien; Végétalien","prix_min":"120","prix_max":" 195","zipcode":"11360","ville":"Fontjoncouse","address":"5 Avenue Saint-Victor"},{"name":"Les Prés d'Eugénie - Michel Guérard","etoile":"","note":"","type_cuisine":"Traditionnel, Classique; Gastronomique; Végétarien; Végétalien","prix_min":"130","prix_max":" 240","zipcode":"40320","ville":"Eugénie-les-Bains","address":"pl. de l'Impératrice"},{"name":"L'Aromate","etoile":"","note":"","type_cuisine":"Cuisine Moderne, Créative","prix_min":"70 ","prix_max":"95 €","zipcode":"06000","ville":"Nice","address":"2 r. Gustave Deloye"},{"name":"Ithurria","etoile":"","note":"","type_cuisine":"Traditionnel, Classique; Basque","prix_min":"42 ","prix_max":"65 €","zipcode":"64250","ville":"Ainhoa","address":"pl. du Fronton"},{"name":"Auberge de la Brie","etoile":"","note":"","type_cuisine":"Cuisine Moderne, Créative; Gastronomique","prix_min":"40 ","prix_max":"100 ","zipcode":"77860","ville":"Couilly-Pont-aux-Dames","address":"14 av. Alphonse Boulingre"},{"name":"La Côte Saint-Jacques","etoile":"","note":"","type_cuisine":"Cuisine Moderne, Créative; Gastronomique; Végétarien","prix_min":"79 ","prix_max":"238 ","zipcode":"89300","ville":"Joigny","address":"14 faubourg de Paris"},{"name":"L'Essentiel","etoile":"","note":"","type_cuisine":"Cuisine Moderne, Créative","prix_min":"31 ","prix_max":"99 €","zipcode":"24000","ville":"Périgueux","address":"8 r. de la Clarté"},{"name":"Apicius","etoile":"","note":"","type_cuisine":"Traditionnel, Classique; Cuisine Moderne, Créative","prix_min":"125","prix_max":" 220","zipcode":"75008","ville":"Paris","address":"20 r. d'Artois"},{"name":"Le Gabriel","etoile":"","note":"","type_cuisine":"Cuisine Moderne, Créative; Gastronomique; Végétarien; Végétalien","prix_min":"95 ","prix_max":"250 ","zipcode":"75008","ville":"Paris","address":"42 Avenue Gabriel"},{"name":"Christopher Coutanceau","etoile":"","note":"","type_cuisine":"Poissons, Fruits de Mer; Cuisine Moderne, Créative; Gastronomique","prix_min":"68 ","prix_max":"165 ","zipcode":"17000","ville":"La Rochelle","address":"Promenade de la Concurrence"},{"name":"La Grange de Belle-Église","etoile":"","note":"","type_cuisine":"Traditionnel, Classique","prix_min":"26 ","prix_max":"160 ","zipcode":"60540","ville":"Belle-Église","address":"28 bd René-Aimé-Lagabrielle"},{"name":"Maison Rostang","etoile":"","note":"","type_cuisine":"Traditionnel, Classique; Gastronomique","prix_min":"90 ","prix_max":"225 ","zipcode":"75017","ville":"Paris","address":"20 rue Rennequin"},{"name":"Le Magasin aux Vivres","etoile":"","note":"","type_cuisine":"Cuisine Moderne, Créative; Gastronomique","prix_min":"38 ","prix_max":"125 ","zipcode":"57000","ville":"Metz","address":"5 Avenue Ney"},{"name":"Le Refuge des Gourmets","etoile":"","note":"","type_cuisine":"Cuisine Moderne, Créative; Gastronomique; Européen","prix_min":"35 ","prix_max":"103 ","zipcode":"74140","ville":"Machilly","address":"90 route des Framboises"},{"name":"La Table de la Ferme","etoile":"","note":"","type_cuisine":"Corse","prix_min":"125","prix_max":" 195","zipcode":"20100","ville":"Sartène","address":"Vallée de l'Ortolo"},{"name":"Le Chantecler","etoile":"","note":"","type_cuisine":"Cuisine Moderne, Créative; Gastronomique","prix_min":" - ","prix_max":"€   ","zipcode":"06000","ville":"NICE","address":"37 Promenade des Anglais"},{"name":"La Table de Manville","etoile":"","note":"","type_cuisine":"Cuisine Moderne, Créative; Gastronomique; Traditionnel, Classique","prix_min":"70 ","prix_max":"100 ","zipcode":"13520","ville":"Les Baux-de-Provence","address":"Domaine de Manville - D27"},{"name":"114, Faubourg","etoile":"","note":"","type_cuisine":"Cuisine Moderne, Créative; Végétarien; Végétalien","prix_min":"80 ","prix_max":"130 ","zipcode":"75008","ville":"Paris 08","address":"114 r. Fg St-Honoré"},{"name":"La Maison dans le Parc","etoile":"","note":"","type_cuisine":"Cuisine Moderne, Créative; Gastronomique","prix_min":"37 ","prix_max":"85 €","zipcode":"54000","ville":"Nancy","address":"3 r. Ste-Catherine"},{"name":"Le Skiff Club","etoile":"","note":"","type_cuisine":"Cuisine Moderne, Créative","prix_min":"85 ","prix_max":"130 ","zipcode":"33260","ville":"La Teste-de-Buch","address":"1 av. Louis-Gaume"},{"name":"Le Belvédère","etoile":"","note":"","type_cuisine":"Cuisine Moderne, Créative","prix_min":"33 ","prix_max":"101 ","zipcode":"12340","ville":"Bozouls","address":"11 rte du Maquis-Jean-Pierre"},{"name":"Kasbür","etoile":"","note":"","type_cuisine":"Cuisine Moderne, Créative; Gastronomique; Végétarien; Végétalien","prix_min":"25 ","prix_max":"95 €","zipcode":"67700","ville":"Monswiller","address":"8 Rue de Dettwiller"},{"name":"L'Auberge de Bagatelle","etoile":"","note":"","type_cuisine":"Cuisine Moderne, Créative","prix_min":"27 ","prix_max":"100 ","zipcode":"72000","ville":"Le Mans","address":"489 av. Bollée"},{"name":"Restaurant H","etoile":"","note":"","type_cuisine":"Cuisine Moderne, Créative","prix_min":"36 ","prix_max":"80 €","zipcode":"75004","ville":"Paris","address":"13 r. Jean-Beausire","menu":[]},{"name":"Le Fanal","etoile":"","note":"","type_cuisine":"Cuisine Moderne, Créative; Gastronomique; Traditionnel, Classique; Végétarien","prix_min":"19 ","prix_max":"60 €","zipcode":"66650","ville":"Banyuls-sur-Mer","address":"17 Avenue du Fontaulé"},{"name":"Le Quincangrogne","etoile":"","note":"","type_cuisine":"Cuisine Moderne, Créative; Gastronomique; Végétarien; Végétalien","prix_min":"39 ","prix_max":"59 €","zipcode":"77400","ville":"Dampmart","address":"7 Rue de l'Abreuvoir","menu":[]},{"name":"Mirazur","etoile":"","note":"","type_cuisine":"Cuisine Moderne, Créative; Gastronomique; Végétarien; Végétalien","prix_min":"110","prix_max":" 210","zipcode":"06500","ville":"Menton","address":"30, Avenue Aristide Briand"},{"name":"L'Océan","etoile":"","note":"","type_cuisine":"Cuisine Moderne, Créative","prix_min":"75 ","prix_max":"105 ","zipcode":"64500","ville":"Saint-Jean-de-Luz","address":"43 bd Thiers"},{"name":"L'Aquarelle","etoile":"","note":"","type_cuisine":"Cuisine Moderne, Créative","prix_min":"37 ","prix_max":"110 ","zipcode":"17920","ville":"Breuillet","address":"71 A rte du Montil"},{"name":"Hostellerie du Rosenmeer","etoile":"","note":"","type_cuisine":"Cuisine Moderne, Créative; Bistronomique; Végétarien; Végétalien","prix_min":"36 ","prix_max":"80 €","zipcode":"67560","ville":"ROSHEIM","address":"45 avenue de la Gare"},{"name":"Umami","etoile":"","note":"","type_cuisine":"Cuisine Moderne, Créative","prix_min":"57 ","prix_max":"90 €","zipcode":"67000","ville":"Strasbourg","address":"8 r. des Dentelles"},{"name":"Mavrommatis","etoile":"","note":"","type_cuisine":"Grec","prix_min":"42 ","prix_max":"75 €","zipcode":"75005","ville":"Paris 05","address":"42 rue Daubenton"},{"name":"Le Clocher des Pères","etoile":"","note":"","type_cuisine":"Cuisine Moderne, Créative; Gastronomique; Traditionnel, Classique","prix_min":"43 ","prix_max":"58 €","zipcode":"73130","ville":"Saint-Martin-sur-la-Chambre","address":"D213"},{"name":"La Maison d'à Côté","etoile":"","note":"","type_cuisine":"Cuisine Moderne, Créative; Gastronomique; Végétarien; Végétalien","prix_min":"42 ","prix_max":"150 ","zipcode":"41350","ville":"Montlivault","address":"17 rue de Chambord"},{"name":"Pierre","etoile":"","note":"","type_cuisine":"Traditionnel, Classique; Gastronomique; Cuisine Moderne, Créative; Végétarien","prix_min":"29 ","prix_max":"98 €","zipcode":"71000","ville":"Mâcon","address":"7-9 rue Joseph Dufour"},{"name":"La Lorraine","etoile":"","note":"","type_cuisine":"Cuisine Moderne, Créative; Gastronomique","prix_min":"36 ","prix_max":"98 €","zipcode":"57330","ville":"Zoufftgen","address":"80 rue Principale"},{"name":"Pierre Reboul","etoile":"","note":"","type_cuisine":"Cuisine Moderne, Créative; Traditionnel, Classique","prix_min":"48 ","prix_max":"155 ","zipcode":"13546","ville":"Aix-en-Provence","address":"260 r. Guillaume-du-Vair"},{"name":"Tour d'Argent","etoile":"","note":"","type_cuisine":"Cuisine Moderne, Créative; Traditionnel, Classique","prix_min":"105","prix_max":" 360","zipcode":"75005","ville":"Paris","address":"15 quai de la Tournelle"},{"name":"Intuition","etoile":"","note":"","type_cuisine":"Cuisine Moderne, Créative","prix_min":"20 ","prix_max":"67 €","zipcode":"50000","ville":"Saint-Lô","address":"1 r. Alsace-Lorraine"},{"name":"Les Bories","etoile":"","note":"","type_cuisine":"Cuisine Moderne, Créative; Gastronomique","prix_min":"29 ","prix_max":"97 €","zipcode":"84220","ville":"Gordes","address":"rte de l'Abbaye de Sénanque"},{"name":"Le Manoir du Lys","etoile":"","note":"","type_cuisine":"Cuisine Moderne, Créative","prix_min":"46 ","prix_max":"80 €","zipcode":"61140","ville":"Bagnoles-de-l'Orne","address":"D235"},{"name":"Aida","etoile":"","note":"","type_cuisine":"Japonais","prix_min":" - ","prix_max":"€   ","zipcode":"75007","ville":"Paris 07","address":"1 r. Pierre Leroux"},{"name":"Skab","etoile":"","note":"","type_cuisine":"Cuisine Moderne, Créative; Gastronomique","prix_min":"26 ","prix_max":"101 ","zipcode":"30000","ville":"nimes","address":"7 Rue de la République"},{"name":"Ô Flaveurs","etoile":"","note":"","type_cuisine":"Cuisine Moderne, Créative; Gastronomique; Végétarien; Végétalien","prix_min":"42 ","prix_max":"105 ","zipcode":"74140","ville":"Douvaine","address":"Château de Chilly"},{"name":"Le Prieuré","etoile":"","note":"","type_cuisine":"Cuisine Moderne, Créative","prix_min":"36 ","prix_max":"120 ","zipcode":"30400","ville":"Villeneuve-lès-Avignon","address":"7 pl. du Chapitre"},{"name":"Le Farçon","etoile":"","note":"","type_cuisine":"Cuisine Moderne, Créative; Gastronomique; Cuisine Régionale Française","prix_min":"38 ","prix_max":"110 ","zipcode":"73125","ville":"La Tania","address":"immeuble la Kalinka"},{"name":"1131","etoile":"","note":"","type_cuisine":"Cuisine Moderne, Créative; Gastronomique; Végétarien; Végétalien","prix_min":" - ","prix_max":"    ","zipcode":"21360","ville":"La Bussière-sur-Ouche","address":"D 33"},{"name":"Pèir","etoile":"","note":"","type_cuisine":"Cuisine Moderne, Créative; Gastronomique","prix_min":"75 ","prix_max":"280 ","zipcode":"84220","ville":"Gordes","address":"r. de la Combe"},{"name":"Le Grand Cerf","etoile":"","note":"","type_cuisine":"Traditionnel, Classique; Végétarien; Végétalien","prix_min":"37 ","prix_max":"84 €","zipcode":"51500","ville":"Montchenot","address":"50 rte Nationale"},{"name":"1920","etoile":"","note":"","type_cuisine":"Cuisine Moderne, Créative; Végétarien; Végétalien","prix_min":"70 ","prix_max":"189 ","zipcode":"74120","ville":"Megève","address":"373 chemin des follières"},{"name":"La Ferme de l'Hospital","etoile":"","note":"","type_cuisine":"Cuisine Moderne, Créative","prix_min":"44 ","prix_max":"100 ","zipcode":"74160","ville":"Bossey","address":"rte du golf"},{"name":"Astrance","etoile":"","note":"","type_cuisine":"Cuisine Moderne, Créative","prix_min":"75 ","prix_max":"370 ","zipcode":"75016","ville":"Paris","address":"4 r. Beethoven"},{"name":"Carré des Feuillants","etoile":"","note":"","type_cuisine":"Cuisine Moderne, Créative; Gastronomique","prix_min":"68 ","prix_max":"198 ","zipcode":"75001","ville":"Paris 01","address":"14 rue de Castiglione"},{"name":"Le Marcq","etoile":"","note":"","type_cuisine":"Cuisine Moderne, Créative","prix_min":"42 ","prix_max":"85 €","zipcode":"59700","ville":"Marcq-en-Barœul","address":"944 av. de la République"},{"name":"Le Clarence","etoile":"","note":"","type_cuisine":"Cuisine Moderne, Créative; Gastronomique; Végétarien; Végétalien","prix_min":"90 ","prix_max":"320 ","zipcode":"75008","ville":"Paris 08","address":"31 Avenue Franklin Delano Roosevelt"},{"name":"St-James Paris","etoile":"","note":"","type_cuisine":"Cuisine Moderne, Créative","prix_min":"105","prix_max":" 160","zipcode":"75116","ville":"Paris","address":"43 av. Bugeaud"},{"name":"Kei","etoile":"","note":"","type_cuisine":"Cuisine Moderne, Créative","prix_min":"56 ","prix_max":"195 ","zipcode":"75001","ville":"Paris 01","address":"5 rue du Coq-Héron"},{"name":"Le Meurice Alain Ducasse","etoile":"","note":"","type_cuisine":"Cuisine Moderne, Créative; Gastronomique; Végétarien; Végétalien","prix_min":"85 ","prix_max":"380 ","zipcode":"75001","ville":"Paris","address":"228 Rue de Rivoli"},{"name":"Le St-Placide","etoile":"","note":"","type_cuisine":"Cuisine Moderne, Créative; Gastronomique; Végétarien; Végétalien","prix_min":"29 ","prix_max":"48 €","zipcode":"35400","ville":"Saint-Malo","address":"6 place du poncel"},{"name":"Le Cerisier","etoile":"","note":"","type_cuisine":"Cuisine Moderne, Créative; Gastronomique; Cuisine Régionale Française; Végétarien","prix_min":"28 ","prix_max":"110 ","zipcode":"62840","ville":"LAVENTIE","address":"3 rue de la Gare"},{"name":"Christophe Bacquié","etoile":"","note":"","type_cuisine":"Cuisine Moderne, Créative; Gastronomique; Provençal","prix_min":"135","prix_max":" 240","zipcode":"83330","ville":"Le Castellet","address":"Hotel du Castellet Route des Hauts du Camp"},{"name":"Auberge de la Charme","etoile":"","note":"","type_cuisine":"Cuisine Moderne, Créative; Cuisine Moderne, Créative; Végétarien; Végétalien","prix_min":"36 ","prix_max":"99 €","zipcode":"21370","ville":"Prenois","address":"12 r. de la Charme"},{"name":"Le Moulin du Roc","etoile":"","note":"","type_cuisine":"Traditionnel, Classique; Gastronomique; Cuisines du Sud-Ouest; Végétarien; Cuisine Moderne, Créative","prix_min":"49 ","prix_max":"125 ","zipcode":"24530","ville":"Champagnac-de-Belair","address":"Avenue Eugène Le Roy"},{"name":"Prairial","etoile":"","note":"","type_cuisine":"Cuisine Moderne, Créative; Gastronomique; Végétarien","prix_min":"34 ","prix_max":"88 €","zipcode":"69001","ville":"Lyon","address":"11 Rue Chavanne"},{"name":"Hostellerie Jérôme","etoile":"","note":"","type_cuisine":"Cuisine Moderne, Créative; Traditionnel, Classique; Poissons, Fruits de Mer","prix_min":"78 ","prix_max":"138 ","zipcode":"06320","ville":"La Turbie","address":"20 r. Comte de Cessole"},{"name":"Racine","etoile":"","note":"","type_cuisine":"Cuisine Moderne, Créative; Gastronomique","prix_min":"45 ","prix_max":"95 €","zipcode":"51100","ville":"Reims","address":"6 pl. Godinot"},{"name":"Le Pergolèse","etoile":"","note":"","type_cuisine":"Traditionnel, Classique; Cuisine Moderne, Créative; Gastronomique; Végétarien; Végétalien","prix_min":"50 ","prix_max":"125 ","zipcode":"75016","ville":"Paris","address":"40, Rue Pergolèse"},{"name":"Dominique Bucaille","etoile":"","note":"","type_cuisine":"Cuisine Moderne, Créative; Gastronomique","prix_min":"50 ","prix_max":"95 €","zipcode":"04100","ville":"Manosque","address":"715 av. des Savels"},{"name":"La Liégeoise","etoile":"","note":"","type_cuisine":"Cuisine Moderne, Créative","prix_min":"49 ","prix_max":"79 €","zipcode":"62930","ville":"Wimereux","address":"digue de mer"},{"name":"JY'S","etoile":"","note":"","type_cuisine":"Cuisine Moderne, Créative; Gastronomique","prix_min":"45 ","prix_max":"85 €","zipcode":"68000","ville":"Colmar","address":"17 r. de la Poissonnerie"},{"name":"Jean-Luc Tartarin","etoile":"","note":"","type_cuisine":"Cuisine Moderne, Créative; Végétarien; Végétalien","prix_min":"40 ","prix_max":"140 ","zipcode":"76600","ville":"Le Havre","address":"Square Saint-Roch"},{"name":"Pur' - Jean-François Rouquette","etoile":"","note":"","type_cuisine":"Cuisine Moderne, Créative; Végétarien; Végétalien","prix_min":"145","prix_max":" 275","zipcode":"75002","ville":"Paris 02","address":"5 r. de la Paix"},{"name":"Têtedoie","etoile":"","note":"","type_cuisine":"Cuisine Moderne, Créative; Gastronomique; Végétarien","prix_min":"45 ","prix_max":"145 ","zipcode":"69005","ville":"Lyon 05","address":"4 rue du Professeur Pierre MARION"},{"name":"Les Bas-Rupts","etoile":"","note":"","type_cuisine":"Traditionnel, Classique; Cuisine Régionale Française; Végétarien","prix_min":"38 ","prix_max":"98 €","zipcode":"88400","ville":"Bas-Rupts","address":"181 rte de la Bresse"},{"name":"Pont de l'Ouysse","etoile":"","note":"","type_cuisine":"Traditionnel, Classique; Cuisine Moderne, Créative","prix_min":"60 ","prix_max":"89 €","zipcode":"46200","ville":"Lacave","address":"D23"},{"name":"La Nouvelle Auberge","etoile":"","note":"","type_cuisine":"Traditionnel, Classique; Gastronomique; Brasserie; Végétarien; Végétalien","prix_min":"39.","prix_max":"à 85","zipcode":"68230","ville":"Wihr-au-Val","address":"9 route Nationale"},{"name":"La Table du Connétable","etoile":"","note":"","type_cuisine":"Cuisine Moderne, Créative; Gastronomique; Traditionnel, Classique","prix_min":"67 ","prix_max":"161 ","zipcode":"60500","ville":"Chantilly","address":"4 Rue du Connétable"},{"name":"Azimut","etoile":"","note":"","type_cuisine":"Cuisine Moderne, Créative","prix_min":"38 ","prix_max":"100 ","zipcode":"73120","ville":"Courchevel-Saint-Bon","address":"273 r. de la Madelon"},{"name":"Atmosphères","etoile":"","note":"","type_cuisine":"Cuisine Moderne, Créative; Cuisine Régionale Française","prix_min":"35 ","prix_max":"100 ","zipcode":"73370","ville":"Le Bourget-du-Lac","address":"618 Route des Tournelles"},{"name":"Auberge de l'Ill","etoile":"","note":"","type_cuisine":"Traditionnel, Classique; Gastronomique","prix_min":"106","prix_max":" 300","zipcode":"68970","ville":"Illhaeusern","address":"2 rue de Collonges-au-Mont d'Or"},{"name":"Les Clefs d'Argent","etoile":"","note":"","type_cuisine":"Cuisine Moderne, Créative; Gastronomique; Végétarien; Végétalien","prix_min":"25 ","prix_max":"86 €","zipcode":"40000","ville":"Mont-de-Marsan","address":"333 Avenue des Martyrs de la Résistance"},{"name":"Le Colombier","etoile":"","note":"","type_cuisine":"Cuisine Moderne, Créative; Gastronomique","prix_min":"22 ","prix_max":"75 €","zipcode":"76550","ville":"Offranville","address":"r. Loucheur"},{"name":"Mon Plaisir","etoile":"","note":"","type_cuisine":"Cuisine Moderne, Créative","prix_min":"45 ","prix_max":"90 €","zipcode":"25190","ville":"Chamesol","address":"22 lieu-dit Journal"},{"name":"Villa René Lalique","etoile":"","note":"","type_cuisine":"Cuisine Moderne, Créative; Gastronomique; Végétarien","prix_min":"78 ","prix_max":"240 ","zipcode":"67290","ville":"Wingen-sur-Moder","address":"18 Rue Bellevue"},{"name":"Serge Vieira","etoile":"","note":"","type_cuisine":"Cuisine Moderne, Créative","prix_min":"90 ","prix_max":"148 ","zipcode":"15110","ville":"Chaudes-Aigues","address":"Château du Couffour"},{"name":"Le Jules Verne","etoile":"","note":"","type_cuisine":"Cuisine Moderne, Créative","prix_min":"105","prix_max":" 230","zipcode":"75007","ville":"Paris","address":"2<E>ème</E> étage Tour Eiffel"},{"name":"1741","etoile":"","note":"","type_cuisine":"Cuisine Moderne, Créative; Gastronomique; Végétarien; Végétalien","prix_min":"42 ","prix_max":"129 ","zipcode":"67000","ville":"Strasbourg","address":"22 Quai des Bateliers"},{"name":"Les Tablettes de Jean-Louis Nomicos","etoile":"","note":"","type_cuisine":"Cuisine Moderne, Créative; Gastronomique; Traditionnel, Classique","prix_min":"58 ","prix_max":"141 ","zipcode":"75116","ville":"Paris 16","address":"16 avenue Bugeaud"},{"name":"Helen","etoile":"","note":"","type_cuisine":"Poissons, Fruits de Mer","prix_min":"48 ","prix_max":"160 ","zipcode":"75008","ville":"Paris","address":"3 r.Berryer"},{"name":"Ivan Vautier","etoile":"","note":"","type_cuisine":"Cuisine Moderne, Créative; Végétarien; Végétalien","prix_min":"35.","prix_max":"à 10","zipcode":"14000","ville":"Caen","address":"3 avenue Henry-Chéron"},{"name":"La Grande Cascade","etoile":"","note":"","type_cuisine":"Cuisine Moderne, Créative; Gastronomique; Végétarien","prix_min":"89 ","prix_max":"192 ","zipcode":"75016","ville":"Paris","address":"Carrefour de Longchamp"},{"name":"La Grenouillère","etoile":"","note":"","type_cuisine":"Cuisine Moderne, Créative","prix_min":"80 ","prix_max":"135 ","zipcode":"62170","ville":"La Madelaine-sous-Montreuil","address":"19 r. de la Grenouillère"},{"name":"Vieux Pont","etoile":"","note":"","type_cuisine":"Cuisine Moderne, Créative; Traditionnel, Classique","prix_min":"33 ","prix_max":"90 €","zipcode":"","ville":"","address":"12390"},{"name":"La Chaumière","etoile":"","note":"","type_cuisine":"Cuisine Moderne, Créative; Végétarien; Végétalien","prix_min":"26 ","prix_max":"90 €","zipcode":"39100","ville":"Dole","address":"346 av. du Mar. -Juin"},{"name":"Au Trou Gascon","etoile":"","note":"","type_cuisine":"Cuisines du Sud-Ouest; Cuisine Moderne, Créative","prix_min":"42 ","prix_max":"80 €","zipcode":"75012","ville":"Paris 12","address":"40 r. Taine"},{"name":"À Contre Sens","etoile":"","note":"","type_cuisine":"Cuisine Moderne, Créative","prix_min":"26 ","prix_max":"65 €","zipcode":"14000","ville":"Caen","address":"8-10 r. des Croisiers"},{"name":"Les Bacchanales","etoile":"","note":"","type_cuisine":"Cuisine Moderne, Créative; Gastronomique; Végétarien; Végétalien","prix_min":"32 ","prix_max":"95 €","zipcode":"06140","ville":"VENCE","address":"247 avenue de Provence"},{"name":"Auberge de la Diligence","etoile":"","note":"","type_cuisine":"Cuisine Moderne, Créative; Gastronomique","prix_min":"30 ","prix_max":"76 €","zipcode":"49440","ville":"Loiré","address":"4 r. de la Libération"},{"name":"Sur Mesure par Thierry Marx","etoile":"","note":"","type_cuisine":"Cuisine Moderne, Créative; Gastronomique","prix_min":"85 ","prix_max":"210 ","zipcode":"75001","ville":"Paris 01","address":"251 r. St-Honoré"},{"name":"Henri et Joseph","etoile":"","note":"","type_cuisine":"Cuisine Moderne, Créative","prix_min":"31 ","prix_max":"108 ","zipcode":"56100","ville":"Lorient","address":"4 r. Léo-le-Bourgo","menu":[]},{"name":"La Barbacane","etoile":"","note":"","type_cuisine":"Traditionnel, Classique; Végétarien; Végétalien","prix_min":"39 ","prix_max":"145 ","zipcode":"11000","ville":"Carcassonne","address":"Place Auguste-Pierre-Pont"},{"name":"Pierre Gagnaire","etoile":"","note":"","type_cuisine":"Cuisine Moderne, Créative","prix_min":"155","prix_max":" 350","zipcode":"75008","ville":"Paris 08","address":"6 Rue Balzac"},{"name":"L'Étang du Moulin","etoile":"","note":"","type_cuisine":"Cuisine Moderne, Créative; Brasserie; Gastronomique; Végétarien","prix_min":"48 ","prix_max":"87 €","zipcode":"25210","ville":"Bonnétage","address":"5 chemin de l'Etang du Moulin"},{"name":"Le Strasbourg","etoile":"","note":"","type_cuisine":"Cuisine Moderne, Créative; Gastronomique; Européen; Végétarien; Végétalien","prix_min":"38 ","prix_max":"75 €","zipcode":"57230","ville":"Bitche","address":"24 r. du Col. -Teyssier"},{"name":"Palégrié","etoile":"","note":"","type_cuisine":"Cuisine Moderne, Créative","prix_min":"42 ","prix_max":"88 €","zipcode":"38250","ville":"Corrençon-en-Vercors","address":"Les Ritons"},{"name":"Ô Saveurs","etoile":"","note":"","type_cuisine":"Cuisine Moderne, Créative; Gastronomique; Végétarien; Végétalien","prix_min":"28 ","prix_max":"100 ","zipcode":"31180","ville":"ROUFFIAC-TOLOSAN","address":"8 place Ormeaux au village"},{"name":"Frédéric Doucet","etoile":"","note":"","type_cuisine":"Cuisine Moderne, Créative; Gastronomique; Cuisine Régionale Française; Végétarien","prix_min":"45 ","prix_max":"95 €","zipcode":"71120","ville":"Charolles","address":"2 avenue de la Libération"},{"name":"La Robe","etoile":"","note":"","type_cuisine":"Cuisine Moderne, Créative","prix_min":"24 ","prix_max":"70 €","zipcode":"85600","ville":"Montaigu","address":"3 pl. Reveillère-Lepeaux"},{"name":"Albert 1er","etoile":"","note":"","type_cuisine":"Traditionnel, Classique; Gastronomique","prix_min":"42 ","prix_max":"172 ","zipcode":"74400","ville":"Chamonix-Mont-Blanc","address":"38 rte du Bouchet"},{"name":"Auberge St-Walfrid","etoile":"","note":"","type_cuisine":"Traditionnel, Classique","prix_min":"39 ","prix_max":"128 ","zipcode":"57200","ville":"Sarreguemines","address":"58 r. de Grosbliederstroff"},{"name":"Relais de la Poste","etoile":"","note":"","type_cuisine":"Traditionnel, Classique; Gastronomique","prix_min":"59 ","prix_max":"127 ","zipcode":"40140","ville":"Magescq","address":"24 avenue de Maremne"},{"name":"Py-r","etoile":"","note":"","type_cuisine":"Cuisine Moderne, Créative","prix_min":"34 ","prix_max":"78 €","zipcode":"31000","ville":"Toulouse","address":"19 descente de la Halle-aux-Poissons"},{"name":"Cyril Attrazic","etoile":"","note":"","type_cuisine":"Cuisine Moderne, Créative; Gastronomique; Végétarien; Végétalien","prix_min":"38 ","prix_max":"95 €","zipcode":"48130","ville":"Aumont-Aubrac","address":"10 rte du Languedoc"},{"name":"Le Grand Bleu","etoile":"","note":"","type_cuisine":"Cuisine Moderne, Créative; Végétarien; Végétalien","prix_min":"36 ","prix_max":"125 ","zipcode":"24200","ville":"Sarlat-la-Canéda","address":"43 av. de la Gare"},{"name":"Le Pêché Gourmand","etoile":"","note":"","type_cuisine":"Cuisine Moderne, Créative","prix_min":"26 ","prix_max":"85 €","zipcode":"05100","ville":"Briançon","address":"2 rte de Gap"},{"name":"La Maison de Bournissac","etoile":"","note":"","type_cuisine":"Méditerranéen; Cuisine Moderne, Créative; Provençal; Traditionnel, Classique; Végétalien","prix_min":"34 ","prix_max":"105 ","zipcode":"13550","ville":"Les Paluds-des-Noves","address":"montée d'Eyragues"},{"name":"Château Blanchard","etoile":"","note":"","type_cuisine":"Cuisine Moderne, Créative; Gastronomique","prix_min":"30 ","prix_max":"85 €","zipcode":"42140","ville":"Chazelles-sur-Lyon","address":"36 rte de St-Galmier"},{"name":"L'Auberge des Glazicks","etoile":"","note":"","type_cuisine":"Cuisine Moderne, Créative; Végétarien; Végétalien","prix_min":"58 ","prix_max":"225 ","zipcode":"29550","ville":"PLOMODIERN","address":"7 rue de la Plage"},{"name":"Pages","etoile":"","note":"","type_cuisine":"Cuisine Moderne, Créative","prix_min":"50 ","prix_max":"90 €","zipcode":"75016","ville":"Paris","address":"4 r. Auguste-Vacquerie"},{"name":"La Gouesnière","etoile":"","note":"","type_cuisine":"Cuisine Moderne, Créative; Gastronomique; Poissons, Fruits de Mer; Végétarien; Végétalien","prix_min":"30 ","prix_max":"104 ","zipcode":"35350","ville":"Saint-Méloir-des-Ondes","address":"1 Le Limonay"},{"name":"Le Violon d'Ingres","etoile":"","note":"","type_cuisine":"Traditionnel, Classique; Cuisine Moderne, Créative","prix_min":"49 ","prix_max":"130 ","zipcode":"75007","ville":"Paris","address":"135 route St-Dominique"},{"name":"Les Fresques","etoile":"","note":"","type_cuisine":"Cuisine Moderne, Créative; Gastronomique; Traditionnel, Classique","prix_min":"45 ","prix_max":"110 ","zipcode":"24240","ville":"Monestier","address":"D18"},{"name":"Le France","etoile":"","note":"","type_cuisine":"Cuisine Moderne, Créative; Gastronomique","prix_min":"22 ","prix_max":"39 €","zipcode":"25130","ville":"VILLERS-LE-LAC","address":"8 place Cupillard"},{"name":"Auberge du Pont d'Acigné","etoile":"","note":"","type_cuisine":"Cuisine Moderne, Créative; Cuisine Régionale Française; Gastronomique","prix_min":"44 ","prix_max":"158 ","zipcode":"35530","ville":"Noyal-sur-Vilaine","address":"D392"},{"name":"Mathieu Pacaud - Histoires","etoile":"","note":"","type_cuisine":"Cuisine Moderne, Créative; Gastronomique","prix_min":"95 ","prix_max":"350 ","zipcode":"75016","ville":"Paris","address":"85 Avenue Kléber"},{"name":"La Bonne Auberge","etoile":"","note":"","type_cuisine":"Cuisine Moderne, Créative","prix_min":"48 ","prix_max":"130 ","zipcode":"57350","ville":"Stiring-Wendel","address":"15 r. Nationale"},{"name":"Épicure","etoile":"","note":"","type_cuisine":"Cuisine Moderne, Créative; Gastronomique","prix_min":"145","prix_max":" 350","zipcode":"75008","ville":"Paris 08","address":"112 r. Fg St-Honoré"},{"name":"Flaveur","etoile":"","note":"","type_cuisine":"Cuisine Moderne, Créative; Gastronomique; Méditerranéen; Végétarien; Végétalien","prix_min":"58 ","prix_max":"75 €","zipcode":"06000","ville":"Nice","address":"25 Rue Gubernatis"},{"name":"Agapé","etoile":"","note":"","type_cuisine":"Cuisine Moderne, Créative; Gastronomique","prix_min":"44 ","prix_max":"152 ","zipcode":"75017","ville":"Paris 17","address":"51 rue Jouffroy-d'Abbans"},{"name":"Le Kaïku","etoile":"","note":"","type_cuisine":"Cuisine Moderne, Créative; Traditionnel, Classique","prix_min":"36 ","prix_max":"95 €","zipcode":"64500","ville":"Saint-Jean-de-Luz","address":"17 r. de la République"},{"name":"Le Candille","etoile":"","note":"","type_cuisine":"Cuisine Moderne, Créative; Végétarien; Végétalien","prix_min":"49 ","prix_max":"135 ","zipcode":"06250","ville":"Mougins","address":"bd C. Rebuffel"},{"name":"Les Explorateurs","etoile":"","note":"","type_cuisine":"Cuisine Moderne, Créative; Gastronomique; Bistronomique; Fromages, Fondues; Traditionnel, Classique; Végétarien","prix_min":"60 ","prix_max":"100 ","zipcode":"73440","ville":"VAL THORENS","address":"place du Slalom"},{"name":"L'Amphitryon","etoile":"","note":"","type_cuisine":"Poissons, Fruits de Mer","prix_min":"50 ","prix_max":"150 ","zipcode":"56100","ville":"Lorient","address":"127 r. du Col. -Müller"},{"name":"Allium","etoile":"","note":"","type_cuisine":"Cuisine Moderne, Créative","prix_min":"28 ","prix_max":"95 €","zipcode":"29000","ville":"Quimper","address":"88 bd de Créac'h-Gwen"},{"name":"Le P'tit Polyte","etoile":"","note":"","type_cuisine":"Cuisine Moderne, Créative; Gastronomique; Cuisine Régionale Française; Végétarien; Végétalien","prix_min":"65 ","prix_max":"105 ","zipcode":"38860","ville":"Les Deux Alpes","address":"2 Rue de la Chapelle"},{"name":"La Marine","etoile":"","note":"","type_cuisine":"Cuisine Moderne, Créative; Poissons, Fruits de Mer; Gastronomique; Végétarien; Végétalien; Traditionnel, Classique","prix_min":"64 ","prix_max":"148 ","zipcode":"85330","ville":"L'Herbaudière","address":"3 r. Marie-Lemonnier"},{"name":"Maison Christian Étienne","etoile":"","note":"","type_cuisine":"Cuisine Moderne, Créative; Gastronomique; Provençal; Traditionnel, Classique","prix_min":"35 ","prix_max":"125 ","zipcode":"84000","ville":"Avignon","address":"10 Rue de Mons"},{"name":"Le Pressoir d'Argent - Gordon Ramsay","etoile":"","note":"","type_cuisine":"Cuisine Moderne, Créative; Poissons, Fruits de Mer; Gastronomique; Végétarien","prix_min":"90 ","prix_max":"150 ","zipcode":"33000","ville":"Bordeaux","address":"2,5 Place de la Comédie"},{"name":"Alain Llorca","etoile":"","note":"","type_cuisine":"Provençal; Cuisine Moderne, Créative; Végétarien; Végétalien","prix_min":"48 ","prix_max":"230 ","zipcode":"06480","ville":"La Colle-sur-Loup","address":"350 Route de St-Paul"},{"name":"Étincelles - La Gentilhommière","etoile":"","note":"","type_cuisine":"Cuisine Moderne, Créative; Poissons, Fruits de Mer; Cuisine Régionale Française","prix_min":"47 ","prix_max":"117 ","zipcode":"","ville":"","address":"24440"},{"name":"Ed.Em","etoile":"","note":"","type_cuisine":"Cuisine Moderne, Créative; Gastronomique","prix_min":"35 ","prix_max":"98 €","zipcode":"21190","ville":"Chassagne-Montrachet","address":"4 imp. Chenevottes"},{"name":"L'Axel","etoile":"","note":"","type_cuisine":"Cuisine Moderne, Créative; Gastronomique","prix_min":"33 ","prix_max":"101 ","zipcode":"77300","ville":"Fontainebleau","address":"43 r. de France"},{"name":"Garopapilles","etoile":"","note":"","type_cuisine":"Cuisine Moderne, Créative; Gastronomique","prix_min":"28 ","prix_max":"75 €","zipcode":"33000","ville":"Bordeaux","address":"62 r. Abbé-de-L'Epée"},{"name":"Le Haut-Allier","etoile":"","note":"","type_cuisine":"Cuisine Moderne, Créative; Végétarien; Végétalien","prix_min":"48 ","prix_max":"90 €","zipcode":"43580","ville":"Alleyras","address":"LE PONT D ALLEYRAS"},{"name":"Val d'Auge","etoile":"","note":"","type_cuisine":"Cuisine Moderne, Créative","prix_min":"35 ","prix_max":"100 ","zipcode":"59910","ville":"Bondues","address":"805 av. du Gén.-de-Gaulle"},{"name":"Maison Crouzil et Hôtel L'Écrin","etoile":"","note":"","type_cuisine":"Cuisine Moderne, Créative","prix_min":"38 ","prix_max":"138 ","zipcode":"22130","ville":"Plancoët","address":"20 les Quais"},{"name":"Guy Savoy","etoile":"","note":"","type_cuisine":"Cuisine Moderne, Créative; Gastronomique","prix_min":"203","prix_max":" 385","zipcode":"75006","ville":"Paris","address":"Monnaie de Paris11 Quai de Conti"},{"name":"La Roya","etoile":"","note":"","type_cuisine":"Cuisine Moderne, Créative","prix_min":"55 ","prix_max":"80 €","zipcode":"20217","ville":"Saint-Florent","address":"plage de la Roya"},{"name":"L'Almandin","etoile":"","note":"","type_cuisine":"Cuisine Moderne, Créative; Gastronomique","prix_min":"30 ","prix_max":"98 €","zipcode":"66750","ville":"Saint-Cyprien","address":"Boulevard de l'Almandin"},{"name":"Le Cerf","etoile":"","note":"","type_cuisine":"Cuisine Moderne, Créative; Traditionnel, Classique","prix_min":"47 ","prix_max":"100 ","zipcode":"67520","ville":"Marlenheim","address":"30 r. du Gén.-de-Gaulle"},{"name":"Le Carrousel","etoile":"","note":"","type_cuisine":"Cuisine Moderne, Créative; Gastronomique","prix_min":"28 ","prix_max":"75 €","zipcode":"63350","ville":"MARINGUES","address":"14 rue du Pont de Morge"},{"name":"L'Orangerie","etoile":"","note":"","type_cuisine":"Cuisine Moderne, Créative; Gastronomique","prix_min":"75 ","prix_max":"95 €","zipcode":"75008","ville":"Paris","address":"31 Avenue George-V"},{"name":"Jean-Claude Leclerc","etoile":"","note":"","type_cuisine":"Cuisine Moderne, Créative; Gastronomique","prix_min":"36 ","prix_max":"120 ","zipcode":"63000","ville":"Clermont-Ferrand","address":"12 rue St-Adjutor"},{"name":"Le Domaine du Colombier","etoile":"","note":"","type_cuisine":"Cuisine Moderne, Créative; Gastronomique","prix_min":"39 ","prix_max":"145 ","zipcode":"26780","ville":"Malataverne","address":"270 Chemin de Malombre"},{"name":"Restaurant du Château","etoile":"","note":"","type_cuisine":"Cuisine Moderne, Créative; Gastronomique; Végétarien; Végétalien","prix_min":"75 ","prix_max":"85 €","zipcode":"24650","ville":"Chancelade","address":"15 avenue des Reynats"},{"name":"Faventia","etoile":"","note":"","type_cuisine":"Cuisine Moderne, Créative; Gastronomique; Végétarien","prix_min":"75 ","prix_max":"190 ","zipcode":"83440","ville":"Tourrettes","address":"3100 route de Bagnols-en-Forêt"},{"name":"Château de Codignat","etoile":"","note":"","type_cuisine":"Cuisine Moderne, Créative; Végétarien","prix_min":"57 ","prix_max":"130 ","zipcode":"63190","ville":"Bort-l'Étang","address":"Bort l'Etang"},{"name":"La Table du Gourmet","etoile":"","note":"","type_cuisine":"Cuisine Moderne, Créative; Gastronomique; Végétarien","prix_min":"38 ","prix_max":"110 ","zipcode":"68340","ville":"Riquewihr","address":"5 rue 1ère Armée"},{"name":"Le Montgomerie","etoile":"","note":"","type_cuisine":"Cuisine Moderne, Créative","prix_min":"185","prix_max":" 300","zipcode":"73120","ville":"Courchevel 1850","address":"356 rte de l'Altiport"},{"name":"La Table de Franck Putelat","etoile":"","note":"","type_cuisine":"Cuisine Moderne, Créative; Gastronomique; Végétarien; Végétalien","prix_min":"40 ","prix_max":"160 ","zipcode":"11000","ville":"Carcassonne","address":"80 chemin des Anglais"},{"name":"La Table de La Butte","etoile":"","note":"","type_cuisine":"Cuisine Moderne, Créative; Gastronomique; Traditionnel, Classique; Végétarien; Végétalien","prix_min":"34 ","prix_max":"118 ","zipcode":"29260","ville":"PLOUIDER","address":"10 rue de la Mer"},{"name":"Le Parc Les Crayères","etoile":"","note":"","type_cuisine":"Cuisine Moderne, Créative; Gastronomique; Végétarien; Végétalien; Brasserie","prix_min":"69 ","prix_max":"190 ","zipcode":"51100","ville":"Reims","address":"64 Boulevard Henry Vasnier"},{"name":"L'Arôme","etoile":"","note":"","type_cuisine":"Cuisine Moderne, Créative","prix_min":"59 ","prix_max":"129 ","zipcode":"75008","ville":"Paris 08","address":"3 rue St-Philippe-du-Roule"},{"name":"Auberge Frankenbourg","etoile":"","note":"","type_cuisine":"Cuisine Moderne, Créative; Végétarien; Végétalien","prix_min":"40 ","prix_max":"75 €","zipcode":"67730","ville":"La Vancelle","address":"13 r. Gén. de Gaulle"},{"name":"Haut Bonheur de la Table","etoile":"","note":"","type_cuisine":"Cuisine Moderne, Créative; Gastronomique","prix_min":"39 ","prix_max":"50 €","zipcode":"59670","ville":"Cassel","address":"18 Grand-Place"},{"name":"Le Carré d'Alethius","etoile":"","note":"","type_cuisine":"Cuisine Moderne, Créative; Gastronomique","prix_min":"22 ","prix_max":"75 €","zipcode":"07800","ville":"Charmes-sur-Rhône","address":"4 r. Paul-Bertois"},{"name":"Étude","etoile":"","note":"","type_cuisine":"Cuisine Moderne, Créative; Traditionnel, Classique","prix_min":"45 ","prix_max":"80 €","zipcode":"75016","ville":"Paris","address":"14 r. Bouquet-de-Longchamp"},{"name":"Auberge à la Bonne Idée","etoile":"","note":"","type_cuisine":"Traditionnel, Classique; Cuisine Moderne, Créative","prix_min":"37.","prix_max":"à 88","zipcode":"60350","ville":"SAINT-JEAN-AUX-BOIS","address":"3 rue des Meuniers"},{"name":"Paul Bocuse","etoile":"","note":"","type_cuisine":"Traditionnel, Classique; Gastronomique; Lyonnais; Végétarien; Végétalien","prix_min":"170","prix_max":" 275","zipcode":"69660","ville":"Collonges-au-Mont-d'Or","address":"40 Rue de la Plage"},{"name":"SaQuaNa","etoile":"","note":"","type_cuisine":"Cuisine Moderne, Créative","prix_min":"90 ","prix_max":"130 ","zipcode":"14600","ville":"Honfleur","address":"22 pl. Hamelin"},{"name":"Paloma","etoile":"","note":"","type_cuisine":"Cuisine Moderne, Créative; Gastronomique; Traditionnel, Classique; Végétarien; Végétalien","prix_min":"49 ","prix_max":"185 ","zipcode":"06250","ville":"Mougins","address":"47 Avenue du Moulin de la Croix"},{"name":"Auberge La Pomme d'Api","etoile":"","note":"","type_cuisine":"Cuisine Moderne, Créative; Gastronomique; Végétarien; Végétalien","prix_min":"25 ","prix_max":"82 €","zipcode":"29250","ville":"Saint-Pol-de-Léon","address":"49 r. Verderel"},{"name":"Au 14 Février","etoile":"","note":"","type_cuisine":"Cuisine Moderne, Créative","prix_min":" - ","prix_max":"    ","zipcode":"Lyon 05","ville":"","address":"36 r. du Bœuf"},{"name":"Les Pyrénées","etoile":"","note":"","type_cuisine":"Traditionnel, Classique","prix_min":"29 ","prix_max":"115 ","zipcode":"64220","ville":"Saint-Jean-Pied-de-Port","address":"19 pl. Ch.-de-Gaulle"},{"name":"Villa Archange","etoile":"","note":"","type_cuisine":"Cuisine Moderne, Créative; Végétarien; Végétalien","prix_min":"68 ","prix_max":"195 ","zipcode":"06110","ville":"Le Cannet","address":"Rue de l'Ouest"},{"name":"Georges Blanc","etoile":"","note":"","type_cuisine":"Cuisine Moderne, Créative; Gastronomique; Cuisine Régionale Française; Végétarien; Traditionnel, Classique","prix_min":"180","prix_max":" 275","zipcode":"01540","ville":"Vonnas","address":"pl. du Marché"},{"name":"La Réserve Rimbaud","etoile":"","note":"","type_cuisine":"Cuisine Moderne, Créative","prix_min":"40 ","prix_max":"100 ","zipcode":"34000","ville":"Montpellier","address":"820 Avenue de Saint-Maur"},{"name":"Château du Mont Joly","etoile":"","note":"","type_cuisine":"Cuisine Moderne, Créative","prix_min":"38 ","prix_max":"108 ","zipcode":"39100","ville":"Sampans","address":"6 r. du Mont-Joly"},{"name":"Apicius","etoile":"","note":"","type_cuisine":"Cuisine Moderne, Créative; Gastronomique; Végétarien","prix_min":"39 ","prix_max":"129 ","zipcode":"63000","ville":"Clermont-Ferrand","address":"Marché Saint Pierre 1 étage"},{"name":"Restaurant de Lauzun","etoile":"","note":"","type_cuisine":"Cuisine Moderne, Créative","prix_min":"31 ","prix_max":"83 €","zipcode":"34150","ville":"Gignac","address":"3 bd de l'Esplanade"},{"name":"Le Millénaire","etoile":"","note":"","type_cuisine":"Cuisine Moderne, Créative; Gastronomique","prix_min":"35 ","prix_max":"120 ","zipcode":"51100","ville":"Reims","address":"4 rue Bertin"},{"name":"Les Terrasses d'Uriage","etoile":"","note":"","type_cuisine":"Cuisine Moderne, Créative; Gastronomique; Végétarien; Végétalien","prix_min":"69 ","prix_max":"160 ","zipcode":"38410","ville":"Uriage-les-Bains","address":"pl. Déesse-Hygie"},{"name":"La Scène Thélème","etoile":"","note":"","type_cuisine":"Cuisine Moderne, Créative; Gastronomique; Cuisine Régionale Française","prix_min":"39 ","prix_max":"179 ","zipcode":"75017","ville":"Paris","address":"18 Rue Troyon"},{"name":"Sushi B","etoile":"","note":"","type_cuisine":"Japonais","prix_min":"58 ","prix_max":"160 ","zipcode":"75002","ville":"Paris","address":"5 r. Rameau"},{"name":"Quai des Saveurs","etoile":"","note":"","type_cuisine":"Cuisine Moderne, Créative; Végétarien; Végétalien","prix_min":"45 ","prix_max":"90 €","zipcode":"57300","ville":"Hagondange","address":"69 rue de la Gare"},{"name":"La Fourchette des Ducs","etoile":"","note":"","type_cuisine":"Cuisine Moderne, Créative; Végétarien; Végétalien; Gastronomique","prix_min":"120","prix_max":" 177","zipcode":"67210","ville":"Obernai","address":"6 r. de la Gare"},{"name":"La Table de Patrick Raingeard","etoile":"","note":"","type_cuisine":"Cuisine Moderne, Créative; Gastronomique; Végétarien; Végétalien; Traditionnel, Classique","prix_min":"49 ","prix_max":"150 ","zipcode":"06360","ville":"EZE-BORD-DE-MER","address":"1312 av. Raymond-Poincaré"},{"name":"La Table Breizh Café","etoile":"","note":"","type_cuisine":"Cuisine Moderne, Créative; Japonais; Végétarien; Végétalien","prix_min":"38 ","prix_max":"75 €","zipcode":"35260","ville":"Cancale","address":"7 quai Thomas"},{"name":"Flocons de Sel","etoile":"","note":"","type_cuisine":"Cuisine Moderne, Créative; Végétarien; Végétalien","prix_min":"90 ","prix_max":"168 ","zipcode":"74120","ville":"Megève","address":"1775 rte du Leutaz"},{"name":"Le Mas du Langoustier","etoile":"","note":"","type_cuisine":"Cuisine Moderne, Créative","prix_min":"95 ","prix_max":"155 ","zipcode":"","ville":"","address":"83400"},{"name":"Guy Lassausaie","etoile":"","note":"","type_cuisine":"Cuisine Moderne, Créative","prix_min":"70 ","prix_max":"120 ","zipcode":"69380","ville":"Chasselay","address":"r. de Belle-Sise"},{"name":"Le Passe Temps","etoile":"","note":"","type_cuisine":"Cuisine Moderne, Créative; Gastronomique","prix_min":"33 ","prix_max":"85 €","zipcode":"69006","ville":"Lyon","address":"52 Rue Tronchet"},{"name":"Jérôme Brochot","etoile":"","note":"","type_cuisine":"Cuisine Moderne, Créative; Cuisine Régionale Française","prix_min":"29 ","prix_max":"75 €","zipcode":"71300","ville":"Montceau-les-Mines","address":"Place Beaubernard"},{"name":"Auberge Tiegezh","etoile":"","note":"","type_cuisine":"Cuisine Moderne, Créative; Gastronomique; Végétarien; Végétalien","prix_min":"25 ","prix_max":"55 €","zipcode":"56380","ville":"Guer","address":"7 Place de la Gare"},{"name":"Meurin","etoile":"","note":"","type_cuisine":"Cuisine Moderne, Créative; Gastronomique; Végétarien","prix_min":"80 ","prix_max":"135 ","zipcode":"62350","ville":"Busnes","address":"Rue de Lillers"},{"name":"Le Lido","etoile":"","note":"","type_cuisine":"Corse; Cuisine Moderne, Créative; Gastronomique; Poissons, Fruits de Mer","prix_min":" - ","prix_max":"    ","zipcode":"20110","ville":"Propriano","address":"42 av. Napoléon-III"},{"name":"Le Chiberta","etoile":"","note":"","type_cuisine":"Cuisine Moderne, Créative; Gastronomique; Végétarien; Végétalien","prix_min":"49 ","prix_max":"120 ","zipcode":"75008","ville":"Paris 08","address":"3 Rue Arsène Houssaye"},{"name":"L'Arcane","etoile":"","note":"","type_cuisine":"Cuisine Moderne, Créative; Gastronomique","prix_min":"34 ","prix_max":"105 ","zipcode":"75018","ville":"Paris","address":"39 Rue Lamarck"},{"name":"Château Cordeillan-Bages","etoile":"","note":"","type_cuisine":"Cuisine Moderne, Créative; Gastronomique","prix_min":"45 ","prix_max":"155 ","zipcode":"33250","ville":"Pauillac","address":"route des chateaux"},{"name":"Bruno","etoile":"","note":"","type_cuisine":"Traditionnel, Classique; Gastronomique; Végétarien; Végétalien","prix_min":"73 ","prix_max":"190 ","zipcode":"83510","ville":"Lorgues","address":"2350 route des Arcs, Campagne Mariette"},{"name":"Maison Jeunet","etoile":"","note":"","type_cuisine":"Cuisine Moderne, Créative; Gastronomique","prix_min":"65 ","prix_max":"118 ","zipcode":"39600","ville":"Arbois","address":"9 r. de l'Hôtel-de-Ville"},{"name":"Septime","etoile":"","note":"","type_cuisine":"Cuisine Moderne, Créative","prix_min":"42 ","prix_max":"80 €","zipcode":"75011","ville":"Paris","address":"80 r. de Charonne"},{"name":"Le Pavé d'Auge","etoile":"","note":"","type_cuisine":"Traditionnel, Classique","prix_min":"38 ","prix_max":"68 €","zipcode":"14430","ville":"Beuvron-en-Auge","address":"D49"},{"name":"Aigue Marine","etoile":"","note":"","type_cuisine":"Cuisine Moderne, Créative; Végétarien; Végétalien; Traditionnel, Classique","prix_min":"21 ","prix_max":"88 €","zipcode":"22220","ville":"Tréguier","address":"5 r. M. -Berthelot"},{"name":"Les Voiles d'Or","etoile":"","note":"","type_cuisine":"Poissons, Fruits de Mer; Cuisine Moderne, Créative","prix_min":"38 ","prix_max":"70 €","zipcode":"76200","ville":"Dieppe","address":"2 chemin de la Falaise"},{"name":"Le Chateaubriand","etoile":"","note":"","type_cuisine":"Cuisine Moderne, Créative","prix_min":"70 ","prix_max":"135 ","zipcode":"75011","ville":"Paris","address":"129 av. Parmentier","menu":[]},{"name":"L'Hysope","etoile":"","note":"","type_cuisine":"Cuisine Moderne, Créative; Cuisine Régionale Française","prix_min":"24 ","prix_max":"125 ","zipcode":"17220","ville":"La Jarrie","address":"25 r. de l'Aurore"},{"name":"Roscanvec","etoile":"","note":"","type_cuisine":"Cuisine Moderne, Créative","prix_min":"25 ","prix_max":"100 ","zipcode":"56000","ville":"Vannes","address":"17 r. des Halles"},{"name":"L'Ekrin by Laurent Azoulay","etoile":"","note":"","type_cuisine":"Cuisine Moderne, Créative; Gastronomique; Végétarien; Végétalien","prix_min":"95 ","prix_max":"230 ","zipcode":"73550","ville":"MERIBEL","address":"Route de la Montée"},{"name":"La Table d'Olivier","etoile":"","note":"","type_cuisine":"Cuisine Moderne, Créative","prix_min":"30 ","prix_max":"75 €","zipcode":"19100","ville":"Brive-la-Gaillarde","address":"3 r. St-Ambroise"},{"name":"Le Belrose","etoile":"","note":"","type_cuisine":"Cuisine Moderne, Créative; Gastronomique","prix_min":" - ","prix_max":"€   ","zipcode":"83580","ville":"Gassin","address":"Boulevard des Crêtes"},{"name":"L'Impertinent","etoile":"","note":"","type_cuisine":"Cuisine Moderne, Créative; Gastronomique; Poissons, Fruits de Mer","prix_min":"38 ","prix_max":"88 €","zipcode":"64200","ville":"Biarritz","address":"5, rue d'Alsace"},{"name":"Lasserre","etoile":"","note":"","type_cuisine":"Traditionnel, Classique; Gastronomique","prix_min":"90 ","prix_max":"241 ","zipcode":"75008","ville":"Paris 08","address":"17 Avenue F. -D. -Roosevelt"},{"name":"Le Pot d'Étain","etoile":"","note":"","type_cuisine":"Cuisine Moderne, Créative","prix_min":"35 ","prix_max":"110 ","zipcode":"90400","ville":"Danjoutin","address":"4 av. de la République"},{"name":"Logis de la Cadène","etoile":"","note":"","type_cuisine":"Cuisine Moderne, Créative; Gastronomique","prix_min":"35 ","prix_max":"85 €","zipcode":"33330","ville":"Saint Emilion","address":"Place du Marche au Bois"},{"name":"Le Pavillon","etoile":"","note":"","type_cuisine":"Cuisine Moderne, Créative","prix_min":"65 ","prix_max":"155 ","zipcode":"62520","ville":"Le Touquet-Paris-Plage","address":"av. du Verger"},{"name":"La Vague d'Or","etoile":"","note":"","type_cuisine":"Cuisine Moderne, Créative; Gastronomique; Provençal; Végétarien; Végétalien","prix_min":"270","prix_max":" 340","zipcode":"83990","ville":"Saint-Tropez","address":"Plage de Bouillabaisse"},{"name":"Xavier Mathieu","etoile":"","note":"","type_cuisine":"Cuisine Moderne, Créative; Végétarien; Végétalien; Provençal","prix_min":"80 ","prix_max":"170 ","zipcode":"84220","ville":"Joucas","address":"Route de Murs"},{"name":"Les Genêts","etoile":"","note":"","type_cuisine":"Cuisine Moderne, Créative; Cuisine Régionale Française; Gastronomique","prix_min":"21 ","prix_max":"59 €","zipcode":"85470","ville":"Brem-sur-Mer","address":"21 bis Rue de l'Océan"},{"name":"Jérémy Galvan","etoile":"","note":"","type_cuisine":"Cuisine Moderne, Créative; Gastronomique","prix_min":"33 ","prix_max":"105 ","zipcode":"69005","ville":"Lyon 05","address":"Rue du Boeuf"},{"name":"Initial","etoile":"","note":"","type_cuisine":"Cuisine Moderne, Créative; Gastronomique; Traditionnel, Classique; Normand; Végétarien; Végétalien","prix_min":"19 ","prix_max":"70 €","zipcode":"14000","ville":"Caen","address":"24 Rue Saint-Manvieu"},{"name":"Hostellerie Bérard","etoile":"","note":"","type_cuisine":"Cuisine Moderne, Créative; Gastronomique; Cuisine Régionale Française; Végétarien; Végétalien","prix_min":"36 ","prix_max":"143 ","zipcode":"83740","ville":"LA-CADIERE-D'AZUR","address":"Avenue Gabriel-Péri"},{"name":"Le Champ des Lunes","etoile":"","note":"","type_cuisine":"Cuisine Moderne, Créative; Gastronomique","prix_min":"20 ","prix_max":"120 ","zipcode":"84360","ville":"Lauris","address":"route de Roquefraîche"},{"name":"L'Esquisse","etoile":"","note":"","type_cuisine":"Cuisine Moderne, Créative; Gastronomique","prix_min":"25 ","prix_max":"65 €","zipcode":"74000","ville":"Annecy","address":"21 rue Royale"},{"name":"Clovis","etoile":"","note":"","type_cuisine":"Cuisine Moderne, Créative; Brasserie","prix_min":"38 ","prix_max":"100 ","zipcode":"06140","ville":"Tourrettes-sur-Loup","address":"21 Grand-Rue"},{"name":"La Matelote","etoile":"","note":"","type_cuisine":"Traditionnel, Classique; Poissons, Fruits de Mer; Cuisine Moderne, Créative; Végétarien; Végétalien","prix_min":"35 ","prix_max":"70 €","zipcode":"62200","ville":"BOULOGNE-SUR-MER","address":"80 Boulevard Ste Beuve"},{"name":"Dyades au Domaine des Étangs","etoile":"","note":"","type_cuisine":"Cuisine Moderne, Créative; Gastronomique; Cuisine Régionale Française; Végétarien","prix_min":"30 ","prix_max":"98 €","zipcode":"16310","ville":"MASSIGNAC","address":"Les Etangs"},{"name":"Restaurant du Palais Royal","etoile":"","note":"","type_cuisine":"Cuisine Moderne, Créative; Gastronomique; Traditionnel, Classique","prix_min":"48 ","prix_max":"152 ","zipcode":"75001","ville":"Paris 01","address":"110 Galerie de Valois - Jardin du Palais Royal"},{"name":"Aux Terrasses","etoile":"","note":"","type_cuisine":"Cuisine Moderne, Créative; Traditionnel, Classique","prix_min":"26 ","prix_max":"95 €","zipcode":"71700","ville":"Tournus","address":"18 av. du 23-Janvier"},{"name":"L'Atelier d'Edmond","etoile":"","note":"","type_cuisine":"Cuisine Moderne, Créative; Gastronomique; Végétarien; Végétalien","prix_min":"95 ","prix_max":"155 ","zipcode":"73150","ville":"Val-d'Isère","address":"au Fornet"},{"name":"La Gloire","etoile":"","note":"","type_cuisine":"Cuisine Moderne, Créative","prix_min":"32 ","prix_max":"105 ","zipcode":"45200","ville":"Montargis","address":"74 av. du Gén.-de-Gaulle"},{"name":"Maison Prévôt","etoile":"","note":"","type_cuisine":"Cuisine Moderne, Créative","prix_min":"34 ","prix_max":"95 €","zipcode":"84300","ville":"Cavaillon","address":"353 av. de Verdun"},{"name":"Au 14 Février","etoile":"","note":"","type_cuisine":"Cuisine Moderne, Créative","prix_min":"52 ","prix_max":"92 €","zipcode":"71570","ville":"Saint-Amour-Bellevue","address":"Le Plâtre-Durand"},{"name":"Château de Vauchoux","etoile":"","note":"","type_cuisine":"Traditionnel, Classique","prix_min":"78 ","prix_max":"148 ","zipcode":"","ville":"","address":"70170"},{"name":"Le Quinzième - Cyril Lignac","etoile":"","note":"","type_cuisine":"Cuisine Moderne, Créative; Végétarien; Végétalien","prix_min":"69 ","prix_max":"180 ","zipcode":"75015","ville":"Paris","address":"14 rue Cauchy"},{"name":"Le Musigny","etoile":"","note":"","type_cuisine":"Cuisine Moderne, Créative; Gastronomique","prix_min":"33 ","prix_max":"100 ","zipcode":"59300","ville":"Valenciennes","address":"90 Avenue de Liege"},{"name":"L'Abeille","etoile":"","note":"","type_cuisine":"Cuisine Moderne, Créative; Traditionnel, Classique; Végétarien; Végétalien","prix_min":"150","prix_max":" 250","zipcode":"75016","ville":"Paris 16","address":"10 Avenue d'Iéna"},{"name":"Neige d'Été","etoile":"","note":"","type_cuisine":"Cuisine Moderne, Créative; Gastronomique; Traditionnel, Classique; Végétarien","prix_min":"45 ","prix_max":"100 ","zipcode":"75015","ville":"Paris 15","address":"12 Rue de l'Amiral Roussin"},{"name":"Alléno Paris au Pavillon Ledoyen","etoile":"","note":"","type_cuisine":"Cuisine Moderne, Créative","prix_min":"135","prix_max":" 340","zipcode":"75008","ville":"Paris","address":"8 avenue Dutuit"},{"name":"La Rotonde","etoile":"","note":"","type_cuisine":"Cuisine Moderne, Créative; Gastronomique; Cuisine Régionale Française; Végétarien; Végétalien","prix_min":"37 ","prix_max":"135 ","zipcode":"69890","ville":"LA-TOUR-DE-SALVAGNY","address":"200 avenue du Casino"},{"name":"La Scène","etoile":"","note":"","type_cuisine":"Cuisine Moderne, Créative; Gastronomique","prix_min":"50 ","prix_max":"195 ","zipcode":"75008","ville":"Paris","address":"33 Avenue George V"},{"name":"Auberge Grand'Maison","etoile":"","note":"","type_cuisine":"Cuisine Moderne, Créative; Gastronomique","prix_min":"27 ","prix_max":"80 €","zipcode":"22530","ville":"Mûr-de-Bretagne","address":"1 r. Léon-le-Cerf"},{"name":"L'Oasis","etoile":"","note":"","type_cuisine":"Cuisine Moderne, Créative; Gastronomique; Végétarien; Végétalien","prix_min":"49 ","prix_max":"149 ","zipcode":"06210","ville":"La Napoule","address":"rue Jean-Honoré Carle"},{"name":"Le St-Martin","etoile":"","note":"","type_cuisine":"Cuisine Moderne, Créative","prix_min":"29 ","prix_max":"78 €","zipcode":"25200","ville":"Montbéliard","address":"1 r. du Gén.-Leclerc"},{"name":"Lamartine","etoile":"","note":"","type_cuisine":"Cuisine Moderne, Créative; Gastronomique; Cuisine Régionale Française; Végétarien; Végétalien","prix_min":"33 ","prix_max":"102 ","zipcode":"73370","ville":"Le Bourget du Lac","address":"Route du Tunnel du Chat"},{"name":"Les Trois Soleils de Montal","etoile":"","note":"","type_cuisine":"Cuisine Moderne, Créative; Gastronomique; Traditionnel, Classique","prix_min":"36 ","prix_max":"88 €","zipcode":"46400","ville":"Saint-Céré","address":"St-Jean-Lespinasse"},{"name":"Mariottat","etoile":"","note":"","type_cuisine":"Cuisine Moderne, Créative","prix_min":"27 ","prix_max":"89 €","zipcode":"47000","ville":"Agen","address":"25 r. L.-Vivent"},{"name":"Le Sérac","etoile":"","note":"","type_cuisine":"Cuisine Moderne, Créative","prix_min":"35 ","prix_max":"68 €","zipcode":"74170","ville":"Saint-Gervais-les-Bains","address":"22 r. de la Comtesse"},{"name":"Origine","etoile":"","note":"","type_cuisine":"Cuisine Moderne, Créative; Gastronomique; Végétarien; Végétalien","prix_min":"30 ","prix_max":"97 €","zipcode":"76000","ville":"Rouen","address":"26 rampe Cauchoise"},{"name":"La Table","etoile":"","note":"","type_cuisine":"Cuisine Moderne, Créative","prix_min":" - ","prix_max":"    ","zipcode":"59000","ville":"Lille","address":"32 Rue de la Barre"},{"name":"L'Orée de la Forêt","etoile":"","note":"","type_cuisine":"Cuisine Moderne, Créative","prix_min":"38 ","prix_max":"115 ","zipcode":"60600","ville":"Étouy","address":"255 r. de la Forêt"},{"name":"Le 39V","etoile":"","note":"","type_cuisine":"Cuisine Moderne, Créative; Traditionnel, Classique; Gastronomique","prix_min":"39.","prix_max":"à 15","zipcode":"75008","ville":"Paris 08","address":"39 Avenue George V"},{"name":"Aux Pesked","etoile":"","note":"","type_cuisine":"Poissons, Fruits de Mer; Cuisine Moderne, Créative; Gastronomique; Végétarien; Végétalien","prix_min":"50 ","prix_max":"85 €","zipcode":"22000","ville":"Saint-Brieuc","address":"59 Rue du Légué"},{"name":"Relais de la Poste","etoile":"","note":"","type_cuisine":"Cuisine Moderne, Créative; Traditionnel, Classique; Gastronomique; Végétarien","prix_min":"29 ","prix_max":"98 €","zipcode":"67610","ville":"LA-WANTZENAU","address":"21 rue du Gén. -de-Gaulle"},{"name":"I Salti","etoile":"","note":"","type_cuisine":"Cuisine Moderne, Créative","prix_min":"55 ","prix_max":"70 €","zipcode":"20226","ville":"Belgodère","address":"route du Reginu"},{"name":"La Cachette","etoile":"","note":"","type_cuisine":"Cuisine Moderne, Créative; Gastronomique; Végétarien; Végétalien","prix_min":"30 ","prix_max":"65 €","zipcode":"26000","ville":"Valence","address":"Rue des Cévennes"},{"name":"Ken Kawasaki","etoile":"","note":"","type_cuisine":"Cuisine Moderne, Créative","prix_min":"30 ","prix_max":"70 €","zipcode":"75018","ville":"Paris","address":"15 r. Caulaincourt"},{"name":"Elsa","etoile":"","note":"","type_cuisine":"Méditerranéen; Cuisine Moderne, Créative; Gastronomique","prix_min":"48 ","prix_max":"150 ","zipcode":"06190","ville":"Roquebrune Cap-Martin","address":"Monte-Carlo Beach - Avenue Princesse Grace"},{"name":"Auberge de la Tour","etoile":"","note":"","type_cuisine":"Cuisine Moderne, Créative; Gastronomique; Végétarien; Végétalien","prix_min":"22 ","prix_max":"66 €","zipcode":"15220","ville":"MARCOLES","address":"Place de la Fontaine"},{"name":"La Palmeraie","etoile":"","note":"","type_cuisine":"Cuisine Moderne, Créative; Provençal; Gastronomique; Végétarien","prix_min":"28 ","prix_max":"65 €","zipcode":"83420","ville":"La Croix-Valmer","address":"81 Boulevard de Gigaro"},{"name":"Dan B. - La Table de Ventabren","etoile":"","note":"","type_cuisine":"Cuisine Moderne, Créative; Gastronomique; Végétarien; Végétalien","prix_min":"43 ","prix_max":"97 €","zipcode":"13122","ville":"Ventabren","address":"r. F. -Mistral"},{"name":"Au Crocodile","etoile":"","note":"","type_cuisine":"Traditionnel, Classique; Gastronomique; Cuisine Moderne, Créative","prix_min":"48 ","prix_max":"148 ","zipcode":"67000","ville":"STRASBOURG","address":"10 rue de L'Outre","menu":[]},{"name":"Le Brittany","etoile":"","note":"","type_cuisine":"Cuisine Moderne, Créative; Végétarien; Poissons, Fruits de Mer","prix_min":"58 ","prix_max":"68 €","zipcode":"29681","ville":"Roscoff","address":"bd Ste-Barbe"},{"name":"Le Domaine de la Corniche","etoile":"","note":"","type_cuisine":"Cuisine Moderne, Créative; Gastronomique","prix_min":"35 ","prix_max":"65 €","zipcode":"78270","ville":"Rolleboise","address":"5 rte de la Corniche"},{"name":"La Grande Maison de Bernard Magrez","etoile":"","note":"","type_cuisine":"Cuisine Moderne, Créative; Gastronomique; Végétarien","prix_min":"65 ","prix_max":"205 ","zipcode":"33000","ville":"Bordeaux","address":"10 Rue Labottière"},{"name":"Maximilien","etoile":"","note":"","type_cuisine":"Cuisine Moderne, Créative; Gastronomique","prix_min":"35 ","prix_max":"92 €","zipcode":"68340","ville":"Zellenberg","address":"19a rte Ostheim"},{"name":"L'Ambroisie","etoile":"","note":"","type_cuisine":"Traditionnel, Classique; Cuisine Moderne, Créative; Gastronomique","prix_min":"210","prix_max":" 390","zipcode":"75004","ville":"Paris","address":"9 Place des Vosges"},{"name":"Auberge au Boeuf","etoile":"","note":"","type_cuisine":"Cuisine Moderne, Créative","prix_min":"35 ","prix_max":"85 €","zipcode":"67770","ville":"Sessenheim","address":"Rue de l'Eglise"},{"name":"La Closerie","etoile":"","note":"","type_cuisine":"Provençal","prix_min":"35 ","prix_max":"85 €","zipcode":"84240","ville":"Ansouis","address":"bd des Platanes"},{"name":"Le Jardin de Benjamin","etoile":"","note":"","type_cuisine":"Cuisine Moderne, Créative; Gastronomique","prix_min":"55 ","prix_max":"125 ","zipcode":"83510","ville":"Lorgues","address":"Route de Salernes"},{"name":"Le Village","etoile":"","note":"","type_cuisine":"Cuisine Moderne, Créative","prix_min":"40 ","prix_max":"245 ","zipcode":"78160","ville":"Marly-le-Roi","address":"3 Grande-Rue"},{"name":"Le Roc Alto","etoile":"","note":"","type_cuisine":"Cuisine Moderne, Créative; Gastronomique","prix_min":"65 ","prix_max":"115 ","zipcode":"05350","ville":"SAINT-VERAN","address":"Quartier La Ville"},{"name":"Maison Kieny","etoile":"","note":"","type_cuisine":"Cuisine Moderne, Créative","prix_min":"33 ","prix_max":"80 €","zipcode":"68400","ville":"Riedisheim","address":"7 Rue du Général de Gaulle"},{"name":"Le Clos St-Pierre","etoile":"","note":"","type_cuisine":"Provençal","prix_min":"40 ","prix_max":"69 €","zipcode":"06650","ville":"Le Rouret","address":"pl. de la Mairie"},{"name":"Le Chiquito","etoile":"","note":"","type_cuisine":"Traditionnel, Classique","prix_min":"64 ","prix_max":"77 €","zipcode":"95540","ville":"Méry-sur-Oise","address":"3 r. de l'Oise, La Bonneville"},{"name":"Le Puits du Trésor","etoile":"","note":"","type_cuisine":"Cuisine Moderne, Créative","prix_min":"47 ","prix_max":"93 €","zipcode":"11600","ville":"Lastours","address":"21 rte des Quatre-Châteaux"},{"name":"La Grand'Vigne","etoile":"","note":"","type_cuisine":"Cuisine Moderne, Créative; Gastronomique; Traditionnel, Classique; Végétarien","prix_min":"75 ","prix_max":"157 ","zipcode":"33650","ville":"Martillac","address":"chemin de Smith-Haut-Lafitte"},{"name":"SEPT","etoile":"","note":"","type_cuisine":"Cuisine Moderne, Créative; Gastronomique; Végétarien","prix_min":"24 ","prix_max":"42 €","zipcode":"31000","ville":"Toulouse","address":"7 pl. St-Sernin"},{"name":"Le Bec au Cauchois","etoile":"","note":"","type_cuisine":"Cuisine Moderne, Créative; Gastronomique","prix_min":"35 ","prix_max":"75 €","zipcode":"76540","ville":"Valmont","address":"22 Rue André Fiquet"},{"name":"Le Favre d'Anne","etoile":"","note":"","type_cuisine":"Cuisine Moderne, Créative","prix_min":"38 ","prix_max":"105 ","zipcode":"49000","ville":"Angers","address":"21 bd du Mar.-Foch"},{"name":"Les Rosiers","etoile":"","note":"","type_cuisine":"Cuisine Moderne, Créative; Gastronomique; Végétarien; Végétalien","prix_min":"39 ","prix_max":"83 €","zipcode":"64200","ville":"Biarritz","address":"32 av. Beau Soleil"},{"name":"La Chèvre d'Or","etoile":"","note":"","type_cuisine":"Cuisine Moderne, Créative; Cuisine Régionale Française","prix_min":"85 ","prix_max":"300 ","zipcode":"06360","ville":"Èze","address":"r. du Barri"},{"name":"La Passagère","etoile":"","note":"","type_cuisine":"Cuisine Moderne, Créative; Gastronomique; Végétarien","prix_min":"26 ","prix_max":"130 ","zipcode":"06160","ville":"Juan-les-Pins","address":"33 boulevard E. -Baudoin"},{"name":"La Table du 11","etoile":"","note":"","type_cuisine":"Cuisine Moderne, Créative; Gastronomique","prix_min":"44 ","prix_max":"95 €","zipcode":"78000","ville":"Versailles","address":"8 rue de la chancellerie"},{"name":"Le Moulin de la Gorce","etoile":"","note":"","type_cuisine":"Traditionnel, Classique","prix_min":"49 ","prix_max":"85 €","zipcode":"87800","ville":"La Roche-l'Abeille","address":"D17"},{"name":"Alain Ducasse au Plaza Athénée","etoile":"","note":"","type_cuisine":"Cuisine Moderne, Créative","prix_min":"210","prix_max":" 390","zipcode":"75008","ville":"Paris","address":"25 avenue Montaigne"},{"name":"Le Saint-Martin","etoile":"","note":"","type_cuisine":"Cuisine Moderne, Créative; Traditionnel, Classique; Végétarien; Végétalien; Gastronomique","prix_min":"42 ","prix_max":"160 ","zipcode":"06140","ville":"Vence","address":"Avenue des Templiers"},{"name":"L'Atelier de Joël Robuchon - Étoile","etoile":"","note":"","type_cuisine":"Cuisine Moderne, Créative","prix_min":"49 ","prix_max":"210 ","zipcode":"75008","ville":"Paris","address":"133 av. des Champs-Élysées"},{"name":"Avel Vor","etoile":"","note":"","type_cuisine":"Cuisine Moderne, Créative","prix_min":"31 ","prix_max":"100 ","zipcode":"56290","ville":"Port-Louis","address":"25 r. de Locmalo"},{"name":"Copenhague","etoile":"","note":"","type_cuisine":"Danois; Gastronomique; Cuisine Moderne, Créative","prix_min":"55 ","prix_max":"115 ","zipcode":"75008","ville":"PARIS","address":"142 AVENUE DES CHAMPS ELYSEES"},{"name":"Akrame","etoile":"","note":"","type_cuisine":"Cuisine Moderne, Créative","prix_min":"65 ","prix_max":"160 ","zipcode":"75008","ville":"Paris","address":"7 r. Tronchet"},{"name":"Les Chênes Verts","etoile":"","note":"","type_cuisine":"Traditionnel, Classique","prix_min":"59 ","prix_max":"180 ","zipcode":"83690","ville":"Tourtour","address":"rte de Villecroze"},{"name":"Rodolphe","etoile":"","note":"","type_cuisine":"Cuisine Moderne, Créative","prix_min":"32 ","prix_max":"115 ","zipcode":"76000","ville":"Rouen","address":"35 r. Percière"},{"name":"Le Patio","etoile":"","note":"","type_cuisine":"Cuisine Moderne, Créative; Végétarien; Végétalien","prix_min":"42 ","prix_max":"110 ","zipcode":"33120","ville":"Arcachon","address":"10 bd de la Plage"},{"name":"Château de Mercuès","etoile":"","note":"","type_cuisine":"Cuisine Moderne, Créative; Cuisines du Sud-Ouest; Végétarien; Végétalien","prix_min":"32 ","prix_max":"125 ","zipcode":"46090","ville":"Mercuès","address":"Route du Château"},{"name":"Les Fresques","etoile":"","note":"","type_cuisine":"Cuisine Moderne, Créative; Traditionnel, Classique; Gastronomique; Végétarien; Végétalien","prix_min":"75 ","prix_max":"97 €","zipcode":"74500","ville":"Évian-les-Bains","address":"13 Avenue des Mateirons"},{"name":"L'Émulsion","etoile":"","note":"","type_cuisine":"Cuisine Moderne, Créative; Gastronomique","prix_min":"18 ","prix_max":"65 €","zipcode":"38080","ville":"Saint-Alban-de-Roche","address":"57 rte de Lyon"},{"name":"La Grignotière","etoile":"","note":"","type_cuisine":"Cuisine Moderne, Créative; Gastronomique; Végétarien; Végétalien","prix_min":"29.","prix_max":"à 89","zipcode":"59590","ville":"Raismes","address":"6 Rue Jean Jaures"},{"name":"L'Atlantide 1874 - Maison Guého","etoile":"","note":"","type_cuisine":"Cuisine Moderne, Créative; Traditionnel, Classique","prix_min":"32 ","prix_max":"115 ","zipcode":"44100","ville":"Nantes","address":"5 r. de l'Hermitage"},{"name":"Shang Palace","etoile":"","note":"","type_cuisine":"Chinois; Gastronomique; Végétarien; Végétalien","prix_min":"48 ","prix_max":"280 ","zipcode":"75016","ville":"Paris 16","address":"10 Avenue d'Iéna"},{"name":"Cayola","etoile":"","note":"","type_cuisine":"Cuisine Moderne, Créative","prix_min":"39 ","prix_max":"100 ","zipcode":"85180","ville":"Talmont-Saint-Hilaire","address":"76 promenade de Cayola"},{"name":"Le Relais des Moines","etoile":"","note":"","type_cuisine":"Cuisine Moderne, Créative","prix_min":"44 ","prix_max":"88 €","zipcode":"83460","ville":"Les Arcs","address":"route de Ste-Roseline"},{"name":"Stéphane Carbone","etoile":"","note":"","type_cuisine":"Cuisine Moderne, Créative","prix_min":"26 ","prix_max":"98 €","zipcode":"14000","ville":"Caen","address":"14 r. de Courtonne"},{"name":"Divellec","etoile":"","note":"","type_cuisine":"Poissons, Fruits de Mer","prix_min":"49 ","prix_max":"210 ","zipcode":"75007","ville":"Paris","address":"18 r. Fabert"},{"name":"La Table des Blot - Auberge du Château","etoile":"","note":"","type_cuisine":"Cuisine Moderne, Créative","prix_min":"50 ","prix_max":"105 ","zipcode":"78720","ville":"Dampierre-en-Yvelines","address":"1 Grande-Rue"},{"name":"La Merise","etoile":"","note":"","type_cuisine":"Cuisine Moderne, Créative","prix_min":"23 ","prix_max":"85 €","zipcode":"67580","ville":"Laubach","address":"7 r. d'Eschbach"},{"name":"Sylvestre","etoile":"","note":"","type_cuisine":"Cuisine Moderne, Créative; Gastronomique; Végétarien; Végétalien","prix_min":"85 ","prix_max":"210 ","zipcode":"75007","ville":"Paris","address":"79 rue St-Dominique"},{"name":"Le Bouche à Oreille","etoile":"","note":"","type_cuisine":"Cuisine Moderne, Créative; Gastronomique; Végétarien; Végétalien","prix_min":"24 ","prix_max":"76 €","zipcode":"91150","ville":"Boutervilliers","address":"11 r. de la Chapelle"},{"name":"Louison","etoile":"","note":"","type_cuisine":"Cuisine Moderne, Créative; Gastronomique","prix_min":"65 ","prix_max":"165 ","zipcode":"13610","ville":"Le Puy-Sainte-Réparade","address":"2750 route de la cride"},{"name":"La Marine","etoile":"","note":"","type_cuisine":"Cuisine Moderne, Créative","prix_min":"44 ","prix_max":"120 ","zipcode":"50270","ville":"Barneville-Carteret","address":"11 r. de Paris"},{"name":"Le Grand Restaurant - Jean-François Piège","etoile":"","note":"","type_cuisine":"Cuisine Moderne, Créative; Gastronomique","prix_min":"85 ","prix_max":"616 ","zipcode":"75008","ville":"Paris","address":"7 r. d'Aguesseau"},{"name":"La Balette","etoile":"","note":"","type_cuisine":"Cuisine Moderne, Créative; Catalan; Catalan; Gastronomique; Végétarien","prix_min":"35 ","prix_max":"115 ","zipcode":"66190","ville":"Collioure","address":"rte de Port-Vendres"},{"name":"Aux Anges","etoile":"","note":"","type_cuisine":"Italien; Gastronomique; Végétarien; Végétalien","prix_min":"36 ","prix_max":"80 €","zipcode":"42300","ville":"Roanne","address":"6 Place Georges Clemenceau"},{"name":"Le Petit Hôtel du Grand Large","etoile":"","note":"","type_cuisine":"Cuisine Moderne, Créative; Végétarien; Végétalien","prix_min":"29 ","prix_max":"66 €","zipcode":"56510","ville":"Portivy","address":"11 quai St-Ivy"},{"name":"Le Petit Nice","etoile":"","note":"","type_cuisine":"Poissons, Fruits de Mer; Cuisine Moderne, Créative; Gastronomique; Végétarien; Végétalien","prix_min":"100","prix_max":" 370","zipcode":"13007","ville":"Marseille 07","address":"Anse de Maldormé - Corniche J. F. Kennedy"},{"name":"Michel Sarran","etoile":"","note":"","type_cuisine":"Cuisine Moderne, Créative","prix_min":"57 ","prix_max":"195 ","zipcode":"31000","ville":"Toulouse","address":"21 bd A.-Duportal"},{"name":"Quinsou","etoile":"","note":"","type_cuisine":"Cuisine Moderne, Créative","prix_min":"35 ","prix_max":"65 €","zipcode":"75006","ville":"Paris","address":"33 r. de l'Abbé-Grégoire"},{"name":"David Toutain","etoile":"","note":"","type_cuisine":"Cuisine Moderne, Créative","prix_min":"55 ","prix_max":"140 ","zipcode":"75007","ville":"Paris","address":"29 r. Surcouf"},{"name":"Relais Louis XIII","etoile":"","note":"","type_cuisine":"Traditionnel, Classique; Gastronomique","prix_min":"65 ","prix_max":"95 €","zipcode":"75006","ville":"Paris","address":"8 Rue des Grands Augustins"},{"name":"Alcyone","etoile":"","note":"","type_cuisine":"Cuisine Moderne, Créative; Gastronomique","prix_min":" - ","prix_max":"    ","zipcode":"13002","ville":"MARSEILLE","address":"1 Place Daviel"},{"name":"Takao Takano","etoile":"","note":"","type_cuisine":"Cuisine Moderne, Créative; Gastronomique","prix_min":"35 ","prix_max":"95 €","zipcode":"69006","ville":"Lyon 06","address":"33 Rue Malesherbes"},{"name":"Une Île","etoile":"","note":"","type_cuisine":"Cuisine Moderne, Créative","prix_min":"35 ","prix_max":"78 €","zipcode":"49000","ville":"Angers","address":"9 r. Max-Richard"},{"name":"L'Atelier du Peintre","etoile":"","note":"","type_cuisine":"Cuisine Moderne, Créative; Gastronomique; Végétarien; Végétalien","prix_min":"24 ","prix_max":"80 €","zipcode":"68000","ville":"Colmar","address":"1 Rue Schongauer"},{"name":"Le Lièvre Gourmand","etoile":"","note":"","type_cuisine":"Cuisine Moderne, Créative","prix_min":"39 ","prix_max":"74 €","zipcode":"45000","ville":"Orléans","address":"28 quai du Châtelet"},{"name":"Domaine de Clairefontaine","etoile":"","note":"","type_cuisine":"Cuisine Moderne, Créative; Gastronomique","prix_min":"28 ","prix_max":"100 ","zipcode":"38121","ville":"Chonas-l'Amballan","address":"chemin des Fontanettes"},{"name":"La Coopérative","etoile":"","note":"","type_cuisine":"Cuisine Moderne, Créative; Méditerranéen; Gastronomique; Végétarien; Végétalien","prix_min":"39 ","prix_max":"85 €","zipcode":"66720","ville":"Bélesta","address":"2A Route de Caladroy"},{"name":"Le Prince Noir - Vivien Durand","etoile":"","note":"","type_cuisine":"Cuisine Moderne, Créative; Gastronomique","prix_min":"35 ","prix_max":"97 €","zipcode":"33310","ville":"Lormont","address":"1 rue du Prince Noir"},{"name":"Le Pousse-Pied","etoile":"","note":"","type_cuisine":"Cuisine Moderne, Créative; Poissons, Fruits de Mer; Bistrot","prix_min":"17 ","prix_max":"48 €","zipcode":"85360","ville":"La Tranche-sur-Mer","address":"84 bd des Vendéens"},{"name":"Palm Beach","etoile":"","note":"","type_cuisine":"Cuisine Moderne, Créative","prix_min":"69 ","prix_max":"119 ","zipcode":"20000","ville":"Ajaccio","address":"route des Iles Sanguinaires"},{"name":"La Tour","etoile":"","note":"","type_cuisine":"Cuisine Moderne, Créative","prix_min":"25 ","prix_max":"110 ","zipcode":"18300","ville":"Sancerre","address":"31 Nouvelle-Place"},{"name":"Julien Binz","etoile":"","note":"","type_cuisine":"Cuisine Moderne, Créative; Gastronomique; Traditionnel, Classique; Végétarien","prix_min":" - ","prix_max":"    ","zipcode":"68770","ville":"Ammerschwihr","address":"7 Rue des Cigognes"},{"name":"Le Jardin des Remparts","etoile":"","note":"","type_cuisine":"Cuisine Moderne, Créative; Végétarien; Végétalien","prix_min":"32 ","prix_max":"100 ","zipcode":"21200","ville":"Beaune","address":"10 rue Hôtel-Dieu"},{"name":"Le Clair de la Plume","etoile":"","note":"","type_cuisine":"Cuisine Moderne, Créative; Gastronomique; Provençal; Végétarien","prix_min":"59 ","prix_max":"135 ","zipcode":"26230","ville":"Grignan","address":"Place du Mail"},{"name":"Le Château de Sable","etoile":"","note":"","type_cuisine":"Cuisine Moderne, Créative","prix_min":"20 ","prix_max":"150 ","zipcode":"29840","ville":"Porspoder","address":"38 r. de l'Europe"},{"name":"Assiette Champenoise","etoile":"","note":"","type_cuisine":"Cuisine Moderne, Créative; Gastronomique; Végétarien; Végétalien","prix_min":"95 ","prix_max":"185 ","zipcode":"51430","ville":"Tinqueux","address":"40 av. Paul Vaillant-Couturier"},{"name":"Le Baudelaire","etoile":"","note":"","type_cuisine":"Cuisine Moderne, Créative; Gastronomique","prix_min":"54 ","prix_max":"180 ","zipcode":"75001","ville":"Paris 01","address":"6-8 rue Duphot"},{"name":"Auberge de l'Abbaye","etoile":"","note":"","type_cuisine":"Cuisine Moderne, Créative","prix_min":"32 ","prix_max":"95 €","zipcode":"01500","ville":"Ambronay","address":"47 place des anciens Combattants"},{"name":"La Dame de Pic","etoile":"","note":"","type_cuisine":"Cuisine Moderne, Créative; Gastronomique; Végétarien; Végétalien","prix_min":"59 ","prix_max":"105 ","zipcode":"75001","ville":"Paris 01","address":"20 Rue du Louvre"},{"name":"La Table d'Uzès","etoile":"","note":"","type_cuisine":"Cuisine Moderne, Créative; Gastronomique","prix_min":"29 ","prix_max":"120 ","zipcode":"30700","ville":"Uzès","address":"18 rue du Docteur Blanchard"},{"name":"Arpège","etoile":"","note":"","type_cuisine":"Cuisine Moderne, Créative; Gastronomique","prix_min":"145","prix_max":" 380","zipcode":"75007","ville":"Paris","address":"84 Rue de Varenne"},{"name":"Le Clos des Sens","etoile":"","note":"","type_cuisine":"Cuisine Moderne, Créative; Végétarien; Végétalien","prix_min":"70 ","prix_max":"190 ","zipcode":"74940","ville":"Annecy","address":"13 r. J. -Mermoz"},{"name":"La Ribaudière","etoile":"","note":"","type_cuisine":"Cuisine Moderne, Créative","prix_min":"49 ","prix_max":"115 ","zipcode":"16200","ville":"Bourg-Charente","address":"2 pl. du Port"},{"name":"Rackham","etoile":"","note":"","type_cuisine":"Cuisine Moderne, Créative; Gastronomique; Poissons, Fruits de Mer","prix_min":"25 ","prix_max":"44 €","zipcode":"29680","ville":"ROSCOFF","address":"27 pl. Lacaze Duthiers rčs de l'église"},{"name":"Meulien","etoile":"","note":"","type_cuisine":"Cuisine Moderne, Créative","prix_min":"35 ","prix_max":"98 €","zipcode":"71700","ville":"Tournus","address":"1 bis av. des Alpes"},{"name":"Le Foch","etoile":"","note":"","type_cuisine":"Cuisine Moderne, Créative","prix_min":"27 ","prix_max":"69 €","zipcode":"51100","ville":"Reims","address":"37 bd Foch"},{"name":"Château d'Adoménil","etoile":"","note":"","type_cuisine":"Traditionnel, Classique; Cuisine Moderne, Créative","prix_min":"68 ","prix_max":"150 ","zipcode":"","ville":"","address":"54300"},{"name":"MaSa","etoile":"","note":"","type_cuisine":"Cuisine Moderne, Créative","prix_min":"42 ","prix_max":"80 €","zipcode":"92100","ville":"Boulogne-Billancourt","address":"112 avenue Victor-Hugo"},{"name":"Le Bon Accueil","etoile":"","note":"","type_cuisine":"Cuisine Moderne, Créative","prix_min":"48 ","prix_max":"105 ","zipcode":"25160","ville":"Malbuisson","address":"32 Grande-Rue"},{"name":"La Table de l'Alpaga","etoile":"","note":"","type_cuisine":"Cuisine Moderne, Créative; Gastronomique; Végétarien; Végétalien","prix_min":"105","prix_max":" 210","zipcode":"74120","ville":"Megève","address":"66 Allée des Marmousets"},{"name":"Dominique Bouchet","etoile":"","note":"","type_cuisine":"Traditionnel, Classique; Cuisine Moderne, Créative; Gastronomique","prix_min":"55 ","prix_max":"125 ","zipcode":"75008","ville":"Paris","address":"11 Rue Treilhard"},{"name":"Antoine","etoile":"","note":"","type_cuisine":"Cuisine Moderne, Créative","prix_min":"48 ","prix_max":"150 ","zipcode":"75116","ville":"Paris 16","address":"10 av. de New-York"},{"name":"Le Camélia","etoile":"","note":"","type_cuisine":"Cuisine Moderne, Créative","prix_min":"32 ","prix_max":"110 ","zipcode":"78380","ville":"Bougival","address":"7 quai Georges Clemenceau"},{"name":"Le Saint-James","etoile":"","note":"","type_cuisine":"Cuisine Moderne, Créative; Végétarien","prix_min":"45 ","prix_max":"150 ","zipcode":"33270","ville":"BOULIAC","address":"3 pl. Camille-Hostein"},{"name":"Au Déjeuner de Sousceyrac","etoile":"","note":"","type_cuisine":"Traditionnel, Classique","prix_min":"30 ","prix_max":"80 €","zipcode":"46190","ville":"Sousceyrac","address":"r. Pierre-Benoit"},{"name":"Le M","etoile":"","note":"","type_cuisine":"Cuisine Moderne, Créative; Gastronomique","prix_min":"44 ","prix_max":"90 €","zipcode":"29200","ville":"Brest","address":"22 r. du Cdt-Drogou"},{"name":"Jérôme Nutile - Le Mas de Boudan","etoile":"","note":"","type_cuisine":"Cuisine Moderne, Créative; Gastronomique; Végétarien","prix_min":"45 ","prix_max":"170 ","zipcode":"30000","ville":"Nîmes","address":"351 Chemin du Mas de Boudan"},{"name":"La Villa Madie","etoile":"","note":"","type_cuisine":"Cuisine Moderne, Créative; Gastronomique; Poissons, Fruits de Mer; Méditerranéen","prix_min":"95 ","prix_max":"162 ","zipcode":"13260","ville":"Cassis","address":"av. du Revestel"},{"name":"Auberge de la Mine","etoile":"","note":"","type_cuisine":"Cuisine Moderne, Créative; Traditionnel, Classique","prix_min":"22 ","prix_max":"80 €","zipcode":"61450","ville":"La Ferrière-aux-Étangs","address":"le Gué-Plat"},{"name":"La Table de Chaintré","etoile":"","note":"","type_cuisine":"Cuisine Moderne, Créative","prix_min":"38 ","prix_max":"60 €","zipcode":"71570","ville":"Chaintré","address":"72 pl. du Luminaire"},{"name":"La Renaissance","etoile":"","note":"","type_cuisine":"Cuisine Moderne, Créative","prix_min":"27 ","prix_max":"70 €","zipcode":"61200","ville":"Argentan","address":"20 av. 2e-Division-Blindée"},{"name":"Gordon Ramsay au Trianon","etoile":"","note":"","type_cuisine":"Cuisine Moderne, Créative","prix_min":"148","prix_max":" 199","zipcode":"78000","ville":"Versailles","address":"1 bd de la Reine"},{"name":"Nakatani","etoile":"","note":"","type_cuisine":"Cuisine Moderne, Créative; Gastronomique; Traditionnel, Classique","prix_min":"40 ","prix_max":"135 ","zipcode":"75007","ville":"PARIS","address":"27 Rue Pierre Leroux"},{"name":"Le Bistrot de Lagarde","etoile":"","note":"","type_cuisine":"Cuisine Moderne, Créative","prix_min":"30 ","prix_max":"82 €","zipcode":"84400","ville":"Lagarde-d'Apt","address":"rte d'Apt"},{"name":"La Table Saint-Crescent","etoile":"","note":"","type_cuisine":"Cuisine Moderne, Créative","prix_min":"35 ","prix_max":"110 ","zipcode":"11100","ville":"Narbonne","address":"route de Perpignan"},{"name":"La Table by La Villa","etoile":"","note":"","type_cuisine":"Cuisine Moderne, Créative","prix_min":"85 ","prix_max":"130 ","zipcode":"20260","ville":"Calvi","address":"chemin de Notre-Dame-de-la-Serra"},{"name":"Le Park 45","etoile":"","note":"","type_cuisine":"Cuisine Moderne, Créative","prix_min":"29 ","prix_max":"140 ","zipcode":"06400","ville":"Cannes","address":"45 bd de la Croisette"},{"name":"Il Cortile","etoile":"","note":"","type_cuisine":"Italien; Gastronomique; Poissons, Fruits de Mer; Végétarien; Végétalien","prix_min":"40 ","prix_max":"110 ","zipcode":"68100","ville":"Mulhouse","address":"11 r. des Franciscains"},{"name":"Le Saint-Estève","etoile":"","note":"","type_cuisine":"Cuisine Moderne, Créative; Gastronomique; Végétarien; Végétalien","prix_min":"59 ","prix_max":"149 ","zipcode":"13100","ville":"Le Tholonet","address":"2250 route cézanne D17"},{"name":"Hervé Busset","etoile":"","note":"","type_cuisine":"Cuisine Moderne, Créative; Gastronomique; Végétarien; Végétalien","prix_min":"40 ","prix_max":"125 ","zipcode":"12320","ville":"Conques","address":"D901"},{"name":"Château de Pray","etoile":"","note":"","type_cuisine":"Cuisine Moderne, Créative; Gastronomique; Cuisine Régionale Française; Végétarien; Végétalien","prix_min":"59 ","prix_max":"135 ","zipcode":"37400","ville":"Amboise","address":"Rue du Cèdre"},{"name":"Le Figuier de St-Esprit","etoile":"","note":"","type_cuisine":"Provençal; Gastronomique; Végétarien; Végétalien","prix_min":"42 ","prix_max":"138 ","zipcode":"06600","ville":"Antibes","address":"7, Promenade Amiral de Grasse"},{"name":"L'Atelier de Joël Robuchon - St-Germain","etoile":"","note":"","type_cuisine":"Cuisine Moderne, Créative","prix_min":"80 ","prix_max":"189 ","zipcode":"75007","ville":"Paris","address":"5 r. de Montalembert"},{"name":"L'Alchémille","etoile":"","note":"","type_cuisine":"Cuisine Moderne, Créative","prix_min":"24 ","prix_max":"79 €","zipcode":"68240","ville":"Kaysersberg","address":"53 rte de Lapoutroie"},{"name":"Hélène Darroze","etoile":"","note":"","type_cuisine":"Cuisine Moderne, Créative; Cuisines du Sud-Ouest; Végétarien; Végétalien","prix_min":"58 ","prix_max":"98 €","zipcode":"75006","ville":"Paris 06","address":"4 rue d'Assas"},{"name":"La Fourchette du Printemps","etoile":"","note":"","type_cuisine":"Cuisine Moderne, Créative","prix_min":"32 ","prix_max":"77 €","zipcode":"75017","ville":"Paris","address":"30 r. du Printemps"},{"name":"Le Bistro des Saveurs","etoile":"","note":"","type_cuisine":"Cuisine Moderne, Créative; Gastronomique; Bistronomique; Végétarien; Végétalien","prix_min":"29 ","prix_max":"80 €","zipcode":"67210","ville":"Obernai","address":"35 Rue de Sélestat"},{"name":"Pertinence","etoile":"","note":"","type_cuisine":"Cuisine Moderne, Créative; Traditionnel, Classique","prix_min":"29 ","prix_max":"120 ","zipcode":"75007","ville":"Paris","address":"29 r. de l'Exposition"},{"name":"Le Pressoir","etoile":"","note":"","type_cuisine":"Cuisine Moderne, Créative; Gastronomique; Végétarien; Végétalien","prix_min":"34 ","prix_max":"100 ","zipcode":"56890","ville":"Saint-Avé","address":"7 r. de l'Hôpital"},{"name":"Flaveurs","etoile":"","note":"","type_cuisine":"Cuisine Moderne, Créative; Gastronomique","prix_min":"38 ","prix_max":"92 €","zipcode":"26000","ville":"Valence","address":"32 Grande-Rue"},{"name":"La Bastide St-Antoine","etoile":"","note":"","type_cuisine":"Provençal; Gastronomique; Végétarien; Végétalien","prix_min":"66 ","prix_max":"220 ","zipcode":"06130","ville":"Grasse","address":"48 av. Henri-Dunant"},{"name":"La Table des Merville","etoile":"","note":"","type_cuisine":"Cuisine Moderne, Créative; Gastronomique; Végétarien; Végétalien; Traditionnel, Classique","prix_min":"28 ","prix_max":"110 ","zipcode":"31320","ville":"Castanet-Tolosan","address":"3 place Richard"},{"name":"Garance","etoile":"","note":"","type_cuisine":"Cuisine Moderne, Créative","prix_min":"39 ","prix_max":"90 €","zipcode":"75007","ville":"Paris","address":"34 r. St-Dominique"},{"name":"La Vieille Tour","etoile":"","note":"","type_cuisine":"Cuisine Moderne, Créative","prix_min":"24 ","prix_max":"90 €","zipcode":"22190","ville":"Plérin","address":"75 r. de la Tour"},{"name":"Le Neuvième Art","etoile":"","note":"","type_cuisine":"Cuisine Moderne, Créative","prix_min":"48 ","prix_max":"150 ","zipcode":"69006","ville":"Lyon","address":"173 r. Cuvier"},{"name":"Le Taillevent","etoile":"","note":"","type_cuisine":"Traditionnel, Classique; Gastronomique","prix_min":"88 ","prix_max":"230 ","zipcode":"75008","ville":"Paris","address":"15 Rue Lamennais"},{"name":"Michel Chabran - La Grande Table","etoile":"","note":"","type_cuisine":"Traditionnel, Classique; Végétarien; Végétalien","prix_min":"69 ","prix_max":"240 ","zipcode":"26600","ville":"Pont-de-l'Isère","address":"29 Avenue du Quarante-Cinquième Parallèle"},{"name":"Auberge du Cheval Blanc","etoile":"","note":"","type_cuisine":"Cuisine Moderne, Créative; Gastronomique; Végétarien; Végétalien","prix_min":"58 ","prix_max":"110 ","zipcode":"67510","ville":"Lembach","address":"4 Route de Wissembourg"},{"name":"Lucas Carton","etoile":"","note":"","type_cuisine":"Cuisine Moderne, Créative; Gastronomique","prix_min":"89 ","prix_max":"151 ","zipcode":"75008","ville":"Paris 08","address":"9 pl. de la Madeleine"},{"name":"Le Castellaras","etoile":"","note":"","type_cuisine":"Provençal; Végétarien; Végétalien","prix_min":"45 ","prix_max":"89 €","zipcode":"83440","ville":"Fayence","address":"461 chemin Peymeyan"},{"name":"J.-M. Pérochon","etoile":"","note":"","type_cuisine":"Cuisine Moderne, Créative; Végétarien; Végétalien","prix_min":"35 ","prix_max":"72 €","zipcode":"85470","ville":"Brétignolles-sur-Mer","address":"63 avenue de la Grand'Roche"},{"name":"Radio","etoile":"","note":"","type_cuisine":"Cuisine Moderne, Créative; Gastronomique; Cuisine Régionale Française; Végétarien; Végétalien","prix_min":"30 ","prix_max":"88 €","zipcode":"63400","ville":"Chamalières","address":"43 av. P. et M.-Curie"},{"name":"Les Ducs de Lorraine","etoile":"","note":"","type_cuisine":"Cuisine Moderne, Créative; Gastronomique","prix_min":"42 ","prix_max":"160 ","zipcode":"88000","ville":"Épinal","address":"5 av. Provence"},{"name":"AM par Alexandre Mazzia","etoile":"","note":"","type_cuisine":"Cuisine Moderne, Créative; Gastronomique; Végétarien; Végétalien","prix_min":"35 ","prix_max":"69 €","zipcode":"13008","ville":"Marseille","address":"9 rue François Rocca"},{"name":"Auberge du Bon Laboureur","etoile":"","note":"","type_cuisine":"Cuisine Moderne, Créative; Gastronomique; Cuisine Régionale Française; Végétarien","prix_min":"32 ","prix_max":"105 ","zipcode":"37150","ville":"Chenonceaux","address":"6 r. Dr Bretonneau"},{"name":"Numéro 3","etoile":"","note":"","type_cuisine":"Cuisine Moderne, Créative; Gastronomique","prix_min":"45 ","prix_max":"79 €","zipcode":"78490","ville":"Le Tremblay-sur-Mauldre","address":"3 rue du Général de Gaulle"},{"name":"Patrick Jeffroy","etoile":"","note":"","type_cuisine":"Cuisine Moderne, Créative","prix_min":"48 ","prix_max":"149 ","zipcode":"29660","ville":"Carantec","address":"20 rue du Kelenn"},{"name":"La Mare aux Oiseaux","etoile":"","note":"","type_cuisine":"Cuisine Moderne, Créative; Gastronomique; Végétarien; Végétalien","prix_min":"55 ","prix_max":"75 €","zipcode":"44720","ville":"Saint-Joachim","address":"223 RUE DU CHEF DE L'ILE Fedrun"},{"name":"Ze Kitchen Galerie","etoile":"","note":"","type_cuisine":"Cuisine Moderne, Créative","prix_min":"41 ","prix_max":"98 €","zipcode":"75006","ville":"Paris","address":"4 r. des Grands-Augustins"},{"name":"Le Pré du Moulin","etoile":"","note":"","type_cuisine":"Traditionnel, Classique; Végétarien; Végétalien","prix_min":"33 ","prix_max":"105 ","zipcode":"84830","ville":"Sérignan-du-Comtat","address":"rte de Ste-Cécile-les-Vignes"},{"name":"1912","etoile":"","note":"","type_cuisine":"Cuisine Moderne, Créative; Gastronomique; Fusion; Végétarien","prix_min":"59 ","prix_max":"108 ","zipcode":"14360","ville":"Trouville-sur-Mer","address":"bd de la Cahotte"},{"name":"La Tour des Vents","etoile":"","note":"","type_cuisine":"Cuisine Moderne, Créative; Traditionnel, Classique; Végétarien; Végétalien","prix_min":"29 ","prix_max":"75 €","zipcode":"24240","ville":"Monbazillac","address":"Le Moulin de Malfourat"},{"name":"Le Hittau","etoile":"","note":"","type_cuisine":"Cuisine Moderne, Créative; Végétarien; Végétalien","prix_min":"26 ","prix_max":"82 €","zipcode":"40230","ville":"SAINT-VINCENT-DE-TYROSSE","address":"1 rue du Nouaou"},{"name":"Les Hautes Roches","etoile":"","note":"","type_cuisine":"Cuisine Moderne, Créative; Gastronomique; Végétarien; Végétalien","prix_min":"60 ","prix_max":"80 €","zipcode":"37210","ville":"Rochecorbon","address":"86 quai de Loire","menu":[]},{"name":"Les Trois Dômes","etoile":"","note":"","type_cuisine":"Cuisine Moderne, Créative","prix_min":"47 ","prix_max":"180 ","zipcode":"69002","ville":"Lyon","address":"20 quai Gailleton"},{"name":"L'Olivier","etoile":"","note":"","type_cuisine":"Cuisine Moderne, Créative; Gastronomique; Cuisine Régionale Française; Traditionnel, Classique","prix_min":" - ","prix_max":"    ","zipcode":"83990","ville":"Saint-Tropez","address":"25 Route des Carles"},{"name":"Le Puits St-Jacques","etoile":"","note":"","type_cuisine":"Cuisine Moderne, Créative","prix_min":"34 ","prix_max":"125 ","zipcode":"32600","ville":"Pujaudran","address":"av. Victor-Capoul"},{"name":"L'Écrin","etoile":"","note":"","type_cuisine":"Cuisine Moderne, Créative; Gastronomique","prix_min":" - ","prix_max":"€   ","zipcode":"75008","ville":"Paris","address":"10 place de la Concorde","menu":[]},{"name":"Au 14 Février","etoile":"","note":"","type_cuisine":"Cuisine Moderne, Créative; Japonais","prix_min":"48 ","prix_max":"87 €","zipcode":"36100","ville":"Saint-Valentin","address":"2 r. du Portail"},{"name":"Cobéa","etoile":"","note":"","type_cuisine":"Cuisine Moderne, Créative; Végétarien; Végétalien","prix_min":"50 ","prix_max":"120 ","zipcode":"75014","ville":"Paris 14","address":"11 r. Raymond Losserand"},{"name":"Passage 53","etoile":"","note":"","type_cuisine":"Cuisine Moderne, Créative","prix_min":"60 ","prix_max":"180 ","zipcode":"75002","ville":"Paris","address":"53 passage des Panoramas"},{"name":"Auberge du Paradis","etoile":"","note":"","type_cuisine":"Cuisine Moderne, Créative","prix_min":" - ","prix_max":"    ","zipcode":"71570","ville":"Saint-Amour-Bellevue","address":"Le Plâtre-Durand"},{"name":"Le Pré Catelan","etoile":"","note":"","type_cuisine":"Cuisine Moderne, Créative","prix_min":"130","prix_max":" 280","zipcode":"75016","ville":"Paris","address":"Route de Suresnes"},{"name":"Auberge de l'Île Barbe","etoile":"","note":"","type_cuisine":"Traditionnel, Classique; Cuisine Moderne, Créative; Gastronomique","prix_min":"50 ","prix_max":"158 ","zipcode":"69009","ville":"Lyon 09","address":"1 Place Notre-Dame"},{"name":"Relais Louis XIII","etoile":"","note":"","type_cuisine":"Traditionnel, Classique; Gastronomique","prix_min":"65 ","prix_max":"95 €","zipcode":"75006","ville":"Paris","address":"8 Rue des Grands Augustins"},{"name":"Anne de Bretagne","etoile":"","note":"","type_cuisine":"Cuisine Moderne, Créative; Gastronomique; Poissons, Fruits de Mer; Végétarien","prix_min":"39 ","prix_max":"77 €","zipcode":"44770","ville":"La Plaine-sur-Mer","address":"163, Boulevard de la Tara"},{"name":"La Promenade","etoile":"","note":"","type_cuisine":"Cuisine Moderne, Créative","prix_min":"28 ","prix_max":"90 €","zipcode":"31590","ville":"Verfeil","address":"2 promenade Jean-Jaurès"},{"name":"Restaurant des Rois","etoile":"","note":"","type_cuisine":"Cuisine Moderne, Créative; Méditerranéen; Végétarien","prix_min":"60 ","prix_max":"150 ","zipcode":"06310","ville":"Beaulieu-sur-Mer","address":"5 Boulevard du Maréchal Leclerc"},{"name":"ES","etoile":"","note":"","type_cuisine":"Cuisine Moderne, Créative; Gastronomique","prix_min":"42 ","prix_max":"105 ","zipcode":"75007","ville":"Paris","address":"91 r. de Grenelle"},{"name":"Domaine d'Auriac","etoile":"","note":"","type_cuisine":"Traditionnel, Classique; Cuisine Moderne, Créative; Gastronomique; Végétarien; Végétalien","prix_min":"49 ","prix_max":"69 €","zipcode":"11000","ville":"Carcassonne","address":"Route de Saint-Hilaire"},{"name":"Les Cèdres","etoile":"","note":"","type_cuisine":"Traditionnel, Classique; Cuisine Moderne, Créative","prix_min":"47 ","prix_max":"105 ","zipcode":"26600","ville":"Granges-les-Beaumont","address":"25 Rue Henri MACHON"},{"name":"Fanny Rey & Jonathan Wahid","etoile":"","note":"","type_cuisine":"Cuisine Moderne, Créative; Gastronomique; Végétarien; Végétalien; Provençal","prix_min":"45 ","prix_max":"150 ","zipcode":"13210","ville":"SAINT REMY DE PROVENCE","address":"12, boulevard Mirabeau"},{"name":"La Table de la Bergerie","etoile":"","note":"","type_cuisine":"Cuisine Moderne, Créative; Gastronomique","prix_min":"19 ","prix_max":"47 €","zipcode":"49380","ville":"Champ-sur-Layon","address":"La Bergerie"},{"name":"Le Coquillage","etoile":"","note":"","type_cuisine":"Poissons, Fruits de Mer","prix_min":"35 ","prix_max":"139 ","zipcode":"35350","ville":"Saint-Méloir-des-Ondes","address":"Lieu-dit Le Buot"},{"name":"La Table d'Eugène","etoile":"","note":"","type_cuisine":"Cuisine Moderne, Créative","prix_min":"35 ","prix_max":"120 ","zipcode":"75018","ville":"Paris","address":"18 r. Eugène-Sue"},{"name":"La Rastègue","etoile":"","note":"","type_cuisine":"Cuisine Moderne, Créative","prix_min":" - ","prix_max":"    ","zipcode":"83230","ville":"Bormes-les-Mimosas","address":"48 bd du Levant"},{"name":"Pertica","etoile":"","note":"","type_cuisine":"Cuisine Moderne, Créative; Gastronomique","prix_min":"36 ","prix_max":"110 ","zipcode":"41100","ville":"Vendôme","address":"15 pl. de la République"},{"name":"La Pyramide-Patrick Henriroux","etoile":"","note":"","type_cuisine":"Cuisine Moderne, Créative; Gastronomique; Végétarien; Traditionnel, Classique","prix_min":"66 ","prix_max":"198 ","zipcode":"38200","ville":"Vienne","address":"14 Boulevard Fernand Point"},{"name":"Gill","etoile":"","note":"","type_cuisine":"Cuisine Moderne, Créative; Végétarien; Végétalien; Gastronomique","prix_min":"40 ","prix_max":"145 ","zipcode":"76000","ville":"Rouen","address":"9 quai de la Bourse"},{"name":"Le Saison","etoile":"","note":"","type_cuisine":"Cuisine Moderne, Créative; Gastronomique","prix_min":"35 ","prix_max":"136 ","zipcode":"35760","ville":"Saint-Grégoire","address":"1 imp. du Vieux-Bourg"},{"name":"Manoir de la Boulaie","etoile":"","note":"","type_cuisine":"Cuisine Moderne, Créative; Gastronomique","prix_min":"59 ","prix_max":"148 ","zipcode":"44115","ville":"HAUTE-GOULAINE","address":"33 rue Chapelle St-Martin"},{"name":"L'Aparté","etoile":"","note":"","type_cuisine":"Cuisine Moderne, Créative; Gastronomique","prix_min":"29 ","prix_max":"87 €","zipcode":"31850","ville":"MONTRABE","address":"21 Rue de l’Europe"}]